type,name,city,address,x,y
寺廟,西方淨苑,南投縣,南投縣埔里鎮福興里3鄰福長路5之4號,0,0
寺廟,善主公廟,臺南市,臺南市白河區番子園竹門里13鄰20-17號,0,0
寺廟,三聖宮,雲林縣,雲林縣莿桐鄉興北興貴村路63之10號,0,0
寺廟,聖靈宮,苗栗縣,苗栗縣西湖鄉茅仔埔五湖村17鄰241號,0,0
寺廟,北極殿,高雄市,高雄市路竹區甲北里大智路,0,0
寺廟,法雲庵感德堂,雲林縣,雲林縣莿桐鄉興北興貴村路116號,0,0
寺廟,鳳儀宮,雲林縣,雲林縣莿桐鄉南安路36號,0,0
寺廟,靈聖宮,臺中市,臺中市太平區吉峰里錦州路459巷3號,0,0
寺廟,萬善廟,屏東縣,屏東縣南州鄉七塊村,0,0
寺廟,萬興莊福德祠,屏東縣,屏東縣南州鄉七塊村,0,0
寺廟,南天聖道院,嘉義縣,嘉義縣鹿草鄉馬稠後豐稠村6鄰4之1號,0,0
寺廟,懷惇宮,南投縣,南投縣埔里鎮大城里16鄰大城路262號,0,0
寺廟,無極山寺,花蓮縣,花蓮縣瑞穗鄉瑞祥瑞村11鄰49號,0,0
寺廟,福天宮,雲林縣,雲林縣莿桐鄉振興興桐村路55號,0,0
寺廟,保安宮,嘉義縣,嘉義縣竹崎鄉中和村永和,0,0
寺廟,慈善寺,嘉義縣,嘉義縣鹿草鄉鹿草段1192-0004號,0,0
寺廟,德昭堂,雲林縣,雲林縣斗南鎮成功東明里10鄰32號,0,0
寺廟,大眾爺廟,宜蘭縣,宜蘭縣五結鄉成興村成鳳路旁,0,0
寺廟,福安宮,基隆市,基隆市七堵區永安里崇孝街俊德吊橋頭v,0,0
寺廟,萬善爺廟,雲林縣,雲林縣口湖鄉下崙村下寮路70之6號,0,0
寺廟,東山鎮興廟,彰化縣,彰化縣員林市南東里山腳路四段30號,0,0
寺廟,彌陀寺,南投縣,南投縣埔里鎮溪南巷4號,0,0
寺廟,蕭大哥廟,連江縣,連江縣莒光鄉田沃村下田沃,0,0
寺廟,靈帝殿,屏東縣,屏東縣東港鎮盛漁街1號,0,0
寺廟,上竹天鳳宮,高雄市,高雄市旗津區上竹巷143號,0,0
寺廟,玄虎宮,臺南市,臺南市仁德區中洲中生里13鄰226-31號,0,0
寺廟,福德祠,屏東縣,屏東縣東港鎮內關帝段424號,0,0
寺廟,天后宮,南投縣,南投縣埔里鎮房里里三勰路4鄰4段27之3號,0,0
寺廟,和興宮,雲林縣,雲林縣莿桐鄉興貴村興中路35號,0,0
寺廟,寶光紹興濟德講堂,雲林縣,雲林縣斗南鎮東明里成功路39之6號,0,0
寺廟,城南府,雲林縣,雲林縣土庫鎮頂寮崙內里路10之6號,0,0
寺廟,校地爺廟,宜蘭縣,宜蘭縣五結鄉利澤村下福東路利澤國小對面,0,0
寺廟,天后宮,金門縣,金門縣金城鎮民族路286巷5號,118.314697265625,24.4311504364014
寺廟,萬姓公,彰化縣,彰化縣芬園鄉社口村仁愛街87號,0,0
寺廟,代天巡狩,金門縣,金門縣金城鎮珠沙里泗湖8號,118.336822509766,24.4121570587158
寺廟,后太宮,高雄市,高雄市仁武區後庄巷98號,0,0
寺廟,蓮山宮,金門縣,金門縣金沙鎮大洋里東沙尾29號,118.44930267334,24.4562206268311
寺廟,樓山寺,金門縣,金門縣金沙鎮西園里1號,118.407615661621,24.5100955963135
寺廟,屏東都城隍廟,屏東縣,屏東縣屏東市南昌路12號,0,0
寺廟,仁美福德祠,桃園市,桃園市平鎮區鎮興里陸橋南路6鄰159巷,0,0
寺廟,蜩鳴宮,澎湖縣,澎湖縣白沙鄉小赤崁村2鄰11-1號,0,0
寺廟,盤古開基殿,臺中市,臺中市大里區瓦瑤路38號,0,0
寺廟,巧聖仙師廟,臺中市,臺中市東勢區匠寮巷52號,0,0
寺廟,福德祀,苗栗縣,苗栗縣苑裡鎮社苓里,0,0
寺廟,玄天上帝廟,連江縣,連江縣莒光鄉大埔石刻旁,0,0
寺廟,甲福德廟,宜蘭縣,宜蘭縣五結鄉利澤村利澤西路五股圳旁,0,0
寺廟,恩主聖侯廟,金門縣,金門縣金沙鎮西園里英坑11號,118.407249450684,24.509880065918
寺廟,東關廟,金門縣,金門縣金沙鎮大洋里新前墩29號,118.449264526367,24.4565143585205
寺廟,棲隱堂,金門縣,金門縣金沙鎮西園里108號,118.402893066406,24.5100574493408
寺廟,奎山宮,金門縣,金門縣金沙鎮浦山里劉澳39號,118.387237548828,24.4826221466064
寺廟,清水祖師廟,金門縣,金門縣烈嶼鄉上岐村青岐69號,118.224891662598,24.4144992828369
寺廟,忠孝宮,臺南市,臺南市鹽水區汫水里4鄰汫水港90號,0,0
寺廟,靈濟寺,金門縣,金門縣金城鎮莒光路2號,118.318572998047,24.431676864624
寺廟,彌陀寺,花蓮縣,花蓮縣玉里鎮泰昌里民權路68號,0,0
寺廟,照瑤宮,雲林縣,雲林縣斗南鎮僑真里紅磘21號,0,0
寺廟,龍珠宮,南投縣,南投縣國姓鄉國姓村國姓路,0,0
寺廟,川德宮,金門縣,金門縣金沙鎮汶沙里後浦頭118號,118.410629272461,24.4890651702881
寺廟,明王殿,金門縣,金門縣金沙鎮三山里山西22之2號,118.429801940918,24.5027008056641
寺廟,內寮村萬應媽廟,屏東縣,屏東縣枋寮鄉北勢寮段460號,0,0
寺廟,朝山寺,金門縣,金門縣金沙鎮浦山里呂厝11號,118.391624450684,24.4860000610352
寺廟,獅山寺,金門縣,金門縣金沙鎮山后上堡85-2號,118.428100585938,24.4801292419434
寺廟,保安宮,臺中市,臺中市梧棲區中正里臨海路36號,0,0
寺廟,西湖古廟,金門縣,金門縣烈嶼鄉林湖村羅厝6號,118.259803771973,24.4250602722168
寺廟,金門縣金沙鎮呂厝拱峰宮,金門縣,金門縣金沙鎮浦山里呂厝46號,118.389915466309,24.4851188659668
寺廟,景山宮,金門縣,金門縣金沙鎮大洋里內洋6號,118.452987670898,24.4620170593262
寺廟,感應廟,金門縣,金門縣金沙鎮三山里山后107號,118.438301086426,24.5039806365967
寺廟,會山寺,金門縣,金門縣金沙鎮光前里陽翟1號,118.429084777832,24.4804744720459
寺廟,南天宮,臺南市,臺南市永康區45鄰龍埔街287號,0,0
寺廟,保福宮,苗栗縣,苗栗縣苑裡鎮房裡里6鄰,0,0
寺廟,黃將軍廟,金門縣,金門縣烈嶼鄉羅厝林湖村,0,0
寺廟,李府將軍廟,金門縣,金門縣烈嶼鄉上林村路,0,0
寺廟,觀音湖福德殿,高雄市,高雄市仁武區觀音湖段1063地號,0,0
寺廟,三代公廟,金門縣,金門縣烈嶼鄉上林村,0,0
寺廟,普天宮,雲林縣,雲林縣四湖鄉箔東村118之1號,0,0
寺廟,頂田心福德祠,苗栗縣,苗栗縣苑裡鎮田心里,0,0
寺廟,公業福德爺廟,雲林縣,雲林縣西螺鎮鹿場三塊厝段小1110地號,0,0
寺廟,白鶴寺,高雄市,高雄市旗山區太平里義德街14巷51號,0,0
寺廟,天后宮,金門縣,金門縣烈嶼鄉上岐村上庫25號,118.229713439941,24.4223670959473
寺廟,竹林村福德祠,彰化縣,彰化縣芬園鄉社口段105之1號,0,0
寺廟,古地城隍廟,金門縣,金門縣金城鎮古城里金門城85-1號,118.305763244629,24.4020080566406
寺廟,象山金剛寺,金門縣,金門縣金沙鎮何斗里頂蘭1號,118.388778686523,24.460958480835
寺廟,福興宮,屏東縣,屏東縣新園鄉新利段499號,0,0
寺廟,北城順清宮,新北市,新北市萬里區磺潭里清水路18號,2.68102189693309E-06,8.04544288257603E-06
寺廟,萬里里成功新邨福德宮,新北市,新北市萬里區萬里里成功新村環河路旁,-3.48675457644276E-05,-0.000107288411527406
寺廟,苗栗市建功里府前福德祠,苗栗縣,苗栗縣苗栗市建功里20鄰莊敬街6號,0,0
寺廟,普玄宮,彰化縣,彰化縣溪州鄉圳寮村下樹巷1號,0,0
寺廟,北柵福德祠,屏東縣,屏東縣麟洛鄉田道村第2鄰,0,0
寺廟,萬金松玉皇宮,高雄市,高雄市大社區萬金巷62號,0,0
寺廟,五鶴山五穀宮,苗栗縣,苗栗縣公館鄉玉穀村1鄰11號,0,0
寺廟,三安宮,雲林縣,雲林縣四湖鄉崙北村海清路35號,0,0
寺廟,雙忠廟,金門縣,金門縣金寧鄉埔後湖埔村1號,0,0
寺廟,龍德宮,南投縣,南投縣魚池鄉共和村4鄰碧山巷3-5號,0,0
寺廟,清心道院,南投縣,南投縣魚池鄉新城村16鄰香茶巷35-18號,0,0
寺廟,大雲合聖宮,桃園市,桃園市中壢區華勛里8鄰華勛街208巷38弄27號,0,0
寺廟,內壢保安宮,桃園市,桃園市中壢區中原里9鄰文化路61號,0,0
寺廟,慈安宮,嘉義縣,嘉義縣竹崎鄉柑仔宅光華村5鄰23之1號,0,0
寺廟,港龍宮,高雄市,高雄市林園區港埔里港埔路42號,0,0
寺廟,興天宮,彰化縣,彰化縣溪州鄉成功村2鄰頂寮巷6號,0,0
寺廟,台中市成興宮,臺中市,臺中市南屯區中和巷11號,0.000691366905812174,0.00021457664843183
寺廟,鎮安宮,臺中市,臺中市清水區國姓里10鄰三美路120號,0,0
寺廟,蓮雲寺,屏東縣,屏東縣高樹鄉南華村8鄰巴黎巷1-2號,0,0
寺廟,清泉寺,苗栗縣,苗栗縣造橋鄉小鼓坑談文村10鄰8號,0,0
寺廟,武聖宮,彰化縣,彰化縣溪州鄉西畔村石塔巷7號,0,0
寺廟,北安宮,雲林縣,雲林縣四湖鄉頂飛沙飛沙村40號,0,0
寺廟,周大王廟,連江縣,連江縣莒光鄉田沃村老人活動中心旁,0,0
寺廟,通聖宮,臺南市,臺南市佳里區東勢寮通興里21之7號,0,0
寺廟,福豐宮,桃園市,桃園市桃園區陽明公園內,0,0
寺廟,九湖武聖廟,苗栗縣,苗栗縣銅鑼鄉九湖2鄰15號,0,0
寺廟,福德宮,桃園市,桃園市中壢區下興南興和里3鄰39號,0,0
寺廟,西鎮堂,南投縣,南投縣埔里鎮鐵山里鐵山一巷5之1號,0,0
寺廟,寶相禪寺,南投縣,南投縣埔里鎮麒麟里10鄰過坑路69號,0,0
寺廟,北極宮慈法堂,彰化縣,彰化縣員林市東北里山腳路六段254巷262號,0,0
寺廟,烈女廟,金門縣,金門縣烈嶼鄉青岐上岐村80之2號,0,0
寺廟,關聖太子廟,金門縣,金門縣烈嶼鄉青岐上岐村41號,0,0
寺廟,凌霄殿,南投縣,南投縣埔里鎮蜈蚣里石坑路3鄰11號,0,0
寺廟,外武廟,金門縣,金門縣金城鎮西門里光前路86號,118.31485748291,24.4331932067871
寺廟,番子崙義聖公廟,屏東縣,屏東縣枋寮鄉番仔崙段,0,0
寺廟,孚濟廟,金門縣,金門縣金湖鎮瓊林里270號,118.371643066406,24.4523391723633
寺廟,天成佛殿,金門縣,金門縣金湖鎮溪邊溪湖里80-2號,0,0
寺廟,財團法人竹南鎮鎮安宮,苗栗縣,苗栗縣竹南鎮塭仔頭港墘里13鄰16號,0,0
寺廟,財團法人臺灣省苗栗縣保民宮,苗栗縣,苗栗縣竹南鎮正南里13鄰保民巷1號,0,0
寺廟,鎌村里山腳福德祠,臺中市,臺中市豐原區鎌村路107巷102弄內,0,0
寺廟,北玄宮,雲林縣,雲林縣麥寮鄉沙崙後崙後村6鄰141號,0,0
寺廟,天鳳宮,金門縣,金門縣金寧鄉安美村西浦頭77-1號,118.316253662109,24.4650344848633
寺廟,奉天宮,彰化縣,彰化縣埔心鄉仁里村奉天路31號,0,0
寺廟,三聖宮,苗栗縣,苗栗縣南庄鄉員林村下員林10鄰6號,0,0
寺廟,澎湖紫微宮,澎湖縣,澎湖縣馬公市鎖管港鎖港里8鄰593號,0,0
寺廟,吳府王爺宮,金門縣,金門縣烈嶼鄉埔頭黃埔村13號,0,0
寺廟,田府廟,金門縣,金門縣烈嶼鄉西吳西口村1號,0,0
寺廟,慈德宮,金門縣,金門縣金沙鎮安美村西浦頭77-1號,0,0
寺廟,新園齊心堂,金門縣,金門縣金沙鎮西園里91-2號,118.403411865234,24.5121822357178
寺廟,保安殿,金門縣,金門縣金沙鎮何厝何斗里51-1號,0,0
寺廟,塩埕保安宮,臺南市,臺南市南區鹽埕路291巷32弄61號,0,0
寺廟,福聚淨寺,彰化縣,彰化縣員林市林厝里山腳路一段坡姜巷379弄219號,0,0
寺廟,澤威祠,南投縣,南投縣埔里鎮北門里12鄰北環路174號,0,0
寺廟,吳府宮,澎湖縣,澎湖縣七美鄉下宮海豐村1鄰6號,0,0
寺廟,晉安宮,雲林縣,雲林縣四湖鄉施湖村2鄰東庄路2-2號,0,0
寺廟,孚佑廟,金門縣,金門縣金寧鄉榜林村東洲33號,118.350494384766,24.4271221160889
寺廟,朱峰宮,高雄市,高雄市大寮區琉球里(路)108之8號,0,0
寺廟,永天聖道寶禪院,花蓮縣,花蓮縣吉安鄉南海10街142號,0,0
寺廟,白馬尊王廟,連江縣,連江縣莒光鄉福正村福正港下方,0,0
寺廟,西秦爺廟,宜蘭縣,宜蘭縣羅東鎮中山西街115之1號,0,0
寺廟,聖懿普庵堂,臺南市,臺南市安定區新吉新吉里58-12號,0,0
寺廟,三魚王廟,金門縣,金門縣金湖鎮料羅里金港路,0,0
寺廟,明光寺,苗栗縣,苗栗縣頭份市新屋家民生里2鄰74號,0,0
寺廟,忠義廟,金門縣,金門縣金湖鎮瓊林里121號,118.384292602539,24.44895362854
寺廟,財團法人台灣省桃園縣大崙崇德宮,桃園市,桃園市中壢區內厝里9鄰中正路4段26巷36號,0,0
寺廟,永安宮,臺中市,臺中市大安區永安里5鄰東西三路240號,0,0
寺廟,關天宮,雲林縣,雲林縣斗南鎮西伯里158之1號,0,0
寺廟,高雄市大坪頂正成宮,高雄市,高雄市小港區高坪38街32號,0,0
寺廟,有求必應廟,連江縣,連江縣莒光鄉青帆村青帆水井旁,0,0
寺廟,保安宮,彰化縣,彰化縣田中鎮復興里山腳路四段253巷32號,-1.07240875877324E-05,2.68102189693309E-06
寺廟,馬光南天宮,雲林縣,雲林縣土庫鎮新光東平里36號,0,0
寺廟,南安宮,臺南市,臺南市安定區油車南安里1號之1,0,0
寺廟,閭山宮,雲林縣,雲林縣麥寮鄉中山麥津村路200巷80號,0,0
寺廟,平鎮廣玄宮,桃園市,桃園市平鎮區福林里8鄰三興路310巷36號,0,0
寺廟,青龍寺,屏東縣,屏東縣車城鄉內埔溫泉村路40之1號,0,0
寺廟,天化宮,彰化縣,彰化縣員林市振興里山腳路二段600號,0,0
寺廟,聚源廟,金門縣,金門縣金沙鎮陽翟光前里12號,0,0
寺廟,雙豐宮,新竹縣,新竹縣寶山鄉雙溪村20鄰雙豐路2號,0,0
寺廟,鎮隆宮,屏東縣,屏東縣屏東市永安里互助街35巷16號,0,0
寺廟,大眾廟,雲林縣,雲林縣麥寮鄉麥豐村9鄰中山路大眾巷3號,0,0
寺廟,黃厝福德祠,彰化縣,彰化縣芬園鄉嘉北段1383、1384地號,0,0
寺廟,妙香寺,金門縣,金門縣金湖鎮西埔蓮庵里,0,0
寺廟,指雲宮,新北市,新北市瑞芳區龍潭里15鄰岳王路240號,0,0
寺廟,佛恩寺,桃園市,桃園市楊梅區瑞坪里1鄰福羚路330號,0,0
寺廟,萬安堂,金門縣,金門縣金沙鎮汶沙里勝利路15號,118.411895751953,24.49143409729
寺廟,北嶽廟,金門縣,金門縣金沙鎮山西三山里99號,0,0
寺廟,保生宮,新竹縣,新竹縣寶山鄉大崎村9鄰大雅一街88號,0,0
寺廟,財團法人台灣省桃園縣迴龍寺,桃園市,桃園市龜山區迴龍村13鄰萬壽路1段38號,0,0
寺廟,慈雲宮,高雄市,高雄市內門區虎頭山內東里1鄰1號,0,0
寺廟,天后宮,金門縣,金門縣金湖鎮蓮庵里峰上6號,118.449142456055,24.4317207336426
寺廟,順天宮,彰化縣,彰化縣二林鎮東和里18鄰儒林路二段513巷33號,0,0
寺廟,靈子殿,高雄市,高雄市大寮區昭明里(路)66號,0,0
寺廟,西佛寺,嘉義縣,嘉義縣大埔鄉草嶺西興村5號之10號,0,0
寺廟,海印宮,金門縣,金門縣金沙鎮東埔汶沙里20號,0,0
寺廟,忠義宮,金門縣,金門縣金湖鎮新湖里搭后2號,118.402679443359,24.4382057189941
寺廟,財團法人日月潭玄奘寺,南投縣,南投縣魚池鄉日月村1鄰中正路261號,0,0
寺廟,忠義廟,金門縣,金門縣烈嶼鄉林湖村西路19號,0,0
寺廟,關帝廟,金門縣,金門縣烈嶼鄉青岐上岐村5號,0,0
寺廟,慈和宮,雲林縣,雲林縣西螺鎮大和九隆里5鄰6-3,0,0
寺廟,福德爺廟,雲林縣,雲林縣西螺鎮頂湳段1049之1號,0,0
寺廟,靈天禪寺,苗栗縣,苗栗縣造橋鄉新庄仔龍昇村10鄰12號,0,0
寺廟,財團法人台灣省南投縣埔里鎮寶湖宮天地堂,南投縣,南投縣埔里鎮枇杷里11鄰枇杷路94號,0,0
寺廟,財團法人金門縣前水頭金水寺公益慈善基金會,金門縣,金門縣金城鎮前水頭138號,118.29524230957,24.4121398925781
寺廟,財團法人金門官澳龍鳳宮,金門縣,金門縣金沙鎮官澳16號,118.412643432617,24.5179271697998
寺廟,玉安宮,雲林縣,雲林縣麥寮鄉興華村16鄰50號,0,0
寺廟,鎮南宮,屏東縣,屏東縣高樹鄉南華村,0,0
寺廟,龍善寺,南投縣,南投縣仁愛鄉大同村榮光巷14鄰37號,0,0
寺廟,聖安宮,雲林縣,雲林縣土庫鎮崙內里5鄰路30之6號,0,0
寺廟,媽祖廟,臺南市,臺南市大內區頭社頭社里17鄰311號,0,0
寺廟,大眾爺祠,臺中市,臺中市大安區海墘里大安港路9鄰安港路1210號,0,0
寺廟,法華寺,苗栗縣,苗栗縣三灣鄉九份寮永和村2鄰46號,0,0
寺廟,鍾福宮,嘉義縣,嘉義縣鹿草鄉毛蟹行三角村21鄰14號,0,0
寺廟,青天堂,南投縣,南投縣埔里鎮東門里忠孝路10鄰157號,0,0
寺廟,聖帝宮,雲林縣,雲林縣麥寮鄉山寮興華村15號之10,0,0
寺廟,緣宗禪寺,高雄市,高雄市仁武區公館三巷1-1號,0,0
寺廟,慈興殿,屏東縣,屏東縣佳冬鄉燄塭村泂興路3-8號,0,0
寺廟,永平寺,桃園市,桃園市中壢區舊明里10鄰義民路47號,0,0
寺廟,福龍宮,臺中市,臺中市外埔區馬鳴里2鄰土城路450號,0,0
寺廟,國王宮,屏東縣,屏東縣萬巒鄉萬巒村中正路18號,0,0
寺廟,天奉宮,高雄市,高雄市鳳山區國泰路二段298附2號,0,0
寺廟,姑娘媽廟,宜蘭縣,宜蘭縣五結鄉利澤村下福東路邊,0,0
寺廟,大仙禪寺,高雄市,高雄市茄萣區白雲里16鄰文化路47之1號,0,0
寺廟,清德宮,彰化縣,彰化縣鹿港鎮玉順里三條巷39號,0,0
寺廟,保安宮,臺南市,臺南市安南區長和街三段96號,0,0
寺廟,觀音佛祖廟,雲林縣,雲林縣斗南鎮溝心新崙里13號,0,0
寺廟,慈雲宮,雲林縣,雲林縣麥寮鄉橋頭村6鄰109號,0,0
寺廟,准天宮,南投縣,南投縣南投市漳和里興和巷136號,0,0
寺廟,薛安宮,雲林縣,雲林縣臺西鄉三和富琦村15鄰18-6號,0,0
寺廟,護國宮,雲林縣,雲林縣斗南鎮港墘新崙里38號,0,0
寺廟,福德宮,嘉義縣,嘉義縣水上鄉柳子林段內溪村260之40地號,0,0
寺廟,代天廟,金門縣,金門縣金寧鄉埔邊湖埔村,0,0
寺廟,威濟廟,金門縣,金門縣金寧鄉后盤村后盤山下井,0,0
寺廟,華山精舍,南投縣,南投縣魚池鄉大林村8鄰華山巷28-2號,0,0
寺廟,慈山聖善王母宮,新竹縣,新竹縣新埔鎮大平窩北平里9鄰106號,0,0
寺廟,與天宮,新竹縣,新竹縣新埔鎮新民里2鄰中正路666號,0,0
寺廟,永安宮,臺中市,臺中市大安區東安村4鄰福東ㄧ路95號,0,0
寺廟,金玉堂,新竹縣,新竹縣北埔鄉南興村8鄰15巷公園街36之11號,0,0
寺廟,五指山灶君堂,新竹縣,新竹縣北埔鄉六股外坪村8鄰11之12號,0,0
寺廟,南海堂,高雄市,高雄市仁武區中華里華北街16號,0,0
寺廟,汶鳳殿,金門縣,金門縣金沙鎮汶沙里後浦頭1號,118.412490844727,24.4903373718262
寺廟,金山道殿,金門縣,金門縣金沙鎮青嶼官嶼里58號,0,0
寺廟,東和宮,南投縣,南投縣中寮鄉內城村2鄰龍南路10之1號,0,0
寺廟,馬鳴福德祠,臺中市,臺中市外埔區馬鳴里8鄰新厝路78號,0,0
寺廟,真武殿,雲林縣,雲林縣斗南鎮二重溝明昌里92號,0,0
寺廟,普竹寺,嘉義縣,嘉義縣水上鄉中庄中庄村14鄰11號,0,0
寺廟,慈蓮寺,臺中市,臺中市外埔區鐵山里17鄰長生路429號,0,0
寺廟,路上厝觀音亭,彰化縣,彰化縣芳苑鄉路平村上林路路上段臨336-1號,0.00178098771721125,6.43730454612523E-05
寺廟,普賢道場,新竹縣,新竹縣峨眉鄉十寮坑湖光村11鄰32-1號,0,0
寺廟,社頭福德宮,彰化縣,彰化縣社頭鄉社頭村三民路128巷,0,0
寺廟,北極殿,金門縣,金門縣金沙鎮西園里浯坑32-1號,118.409736633301,24.5049781799316
寺廟,觀音寺,金門縣,金門縣金沙鎮東山大洋里22-1號,0,0
寺廟,鶯山廟,金門縣,金門縣金沙鎮呂厝浦山里39號,0,0
寺廟,保護廟,金門縣,金門縣金湖鎮瓊林里199號,118.374526977539,24.4563865661621
寺廟,伍德宮,金門縣,金門縣金湖鎮新頭新湖里200號,0,0
寺廟,財團法人台灣省台南市湛然寺,臺南市,臺南市中西區忠義二段38巷8號,0,0
寺廟,太保宮,臺南市,臺南市下營區下營里17鄰民權一街61巷9號,0,0
寺廟,慈善寺,桃園市,桃園市中壢區內壢里2鄰成功路122巷82號,0,0
寺廟,玉里福德宮,花蓮縣,花蓮縣玉里鎮大禹里中華路興國路口,0,0
寺廟,湧光禪寺,桃園市,桃園市平鎮區湧光里27鄰湧光路136巷159號,0,0
寺廟,慈德寺,彰化縣,彰化縣永靖鄉新莊村邱厝巷16號,0,0
寺廟,玄龍宮,桃園市,桃園市平鎮區社子龍恩里6鄰82之2號,0,0
寺廟,德林寺,南投縣,南投縣中寮鄉爽文村12鄰龍南路151之12號,0,0
寺廟,妙禪寺,高雄市,高雄市六龜區荖濃里水冬瓜56號,0,0
寺廟,營源廟,金門縣,金門縣金沙鎮浦山里營山99號,118.396110534668,24.4896621704102
寺廟,儀天宮,雲林縣,雲林縣二崙鄉楊賢村楊賢路50號,0,0
寺廟,任聖宮,雲林縣,雲林縣大埤鄉聯美村4鄰,0,0
寺廟,心眼道場,苗栗縣,苗栗縣苗栗市龍岡新川里6號,0,0
寺廟,溪州萬善祠,彰化縣,彰化縣溪州鄉溪州村溪林路72號,0,0
寺廟,龍山寺,彰化縣,彰化縣鹿港鎮龍山里金門巷81號,0,0
寺廟,順安廟,彰化縣,彰化縣線西鄉頂庄村,0,0
寺廟,關帝廟,金門縣,金門縣烈嶼鄉黃厝黃埔村,0,0
寺廟,高山巖福德宮,屏東縣,屏東縣恆春鎮山海里檳榔路9-11號,0,0
寺廟,碧雲宮,高雄市,高雄市大社區三奶村三民路315號,0,0
寺廟,新興宮,彰化縣,彰化縣二林鎮萬合里7鄰成田巷6之1號,0,0
寺廟,少林宮,雲林縣,雲林縣土庫鎮崙內里26之1號,0,0
寺廟,振興宮,雲林縣,雲林縣土庫鎮秀潭奮起里166號,0,0
寺廟,達磨禪直指心園,嘉義縣,嘉義縣大埔鄉石硤內和平村3號,0,0
寺廟,大眾祠,雲林縣,雲林縣斗南鎮小東段877號,0,0
寺廟,祖師公廟,金門縣,金門縣烈嶼鄉湖井頭西口村16號,118.23023223877,24.4227313995361
寺廟,天師宮,金門縣,金門縣烈嶼鄉青岐上岐村113-1號,0,0
寺廟,天鳳宮,屏東縣,屏東縣車城鄉後灣村4鄰後灣路97號,0,0
寺廟,汶德宮,金門縣,金門縣金沙鎮光前里後水頭1之1號,118.417526245117,24.4738121032715
寺廟,普濟寺,金門縣,金門縣金沙鎮后宅浦山里40-1號,0,0
寺廟,建台宮,雲林縣,雲林縣二崙鄉港後村9鄰太平路91之12號,0,0
寺廟,高雄東照山關帝廟,高雄市,高雄市大樹區小坪里忠義路1號,0,0
寺廟,鏡山岩,金門縣,金門縣金湖鎮小徑瓊林里39號,0,0
寺廟,天師宮,金門縣,金門縣烈嶼鄉庵頂黃埔村,0,0
寺廟,玄奘寺,彰化縣,彰化縣鹿港鎮東石里鹽埕巷4號,0,0
寺廟,玄聖宮,彰化縣,彰化縣二林鎮西庄里9鄰泉西巷5之18號,0,0
寺廟,天奉宮,彰化縣,彰化縣二林鎮永興里合和巷7號,0,0
寺廟,后天宮,彰化縣,彰化縣溪州鄉瓦厝村東光路20號,0,0
寺廟,聖義宮,金門縣,金門縣金沙鎮西園里鹽場東北角,0,0
寺廟,太子廟,臺南市,臺南市山上區卓猴平陽里5鄰4號,0,0
寺廟,鎮顯宮,高雄市,高雄市前鎮區鎮川一巷99之7號,0,0
寺廟,財團法人佛教十方學舍,彰化縣,彰化縣二林鎮華崙里光明路60號,0,0
寺廟,臺安宮,桃園市,桃園市大園區許厝港南港村4鄰103-41號,0,0
寺廟,文聖宮,彰化縣,彰化縣社頭鄉新厝村新興巷1弄2號,0,0
寺廟,祝天宮,雲林縣,雲林縣二崙鄉來惠村22鄰新店路7號,0,0
寺廟,后儀宮,雲林縣,雲林縣二崙鄉永定村7鄰永定路353號,0,0
寺廟,上德宮,雲林縣,雲林縣大埤鄉豐興嘉興村,0,0
寺廟,泰安宮,高雄市,高雄市大樹區溪埔里溪埔路1巷2弄(福德段175地號),0,0
寺廟,姑娘廟,新北市,新北市三峽區龍埔路171號,0,0
寺廟,順天宮,彰化縣,彰化縣二林鎮豐田里山寮巷2號,0,0
寺廟,代安宮,雲林縣,雲林縣土庫鎮西平里山仔腳,0,0
寺廟,順安宮,雲林縣,雲林縣土庫鎮東平里馬光路62號,0,0
寺廟,高府元帥廟,高雄市,高雄市阿蓮區中正141巷41弄12號,0,0
寺廟,慈明宮,新竹縣,新竹縣新豐鄉坑子口上坑村6鄰412之1號,0,0
寺廟,福德廟,宜蘭縣,宜蘭縣羅東鎮忠義巷92號〈東光段1027號〉,0,0
寺廟,靜修禪寺,高雄市,高雄市大寮區中興里(路)44之13號,0,0
寺廟,天聖府,雲林縣,雲林縣土庫鎮後埔里雙人厝23號,0,0
寺廟,朝元宮,高雄市,高雄市內門區新生永吉里18號,0,0
寺廟,保靈殿,金門縣,金門縣金寧鄉古寧頭南山,0,0
寺廟,新福興宮,雲林縣,雲林縣二崙鄉義庄村新庄29號,0,0
寺廟,鎮安宮,雲林縣,雲林縣二崙鄉洲子庄西村11鄰51號,0,0
寺廟,萬應公,金門縣,金門縣金寧鄉湖下湖埔村海堤旁,0,0
寺廟,吳保殿,金門縣,金門縣金寧鄉湖南安美村,0,0
寺廟,福德廟,雲林縣,雲林縣古坑鄉永光村崁頭厝段,0,0
寺廟,道聖堂,屏東縣,屏東縣高樹鄉日新鹽樹村路1號,0,0
寺廟,保福宮,高雄市,高雄市大寮區拷潭里(路)35號,0,0
寺廟,靜法寺,雲林縣,雲林縣土庫鎮崙內里1鄰24之7號,0,0
寺廟,鎮安宮,臺南市,臺南市安南區鹽安路30路,0,0
寺廟,大華嚴寺,苗栗縣,苗栗縣竹南鎮營盤里南寶街22鄰62號,0,0
寺廟,浯島城隍廟,金門縣,金門縣金城鎮西門里光前路40號,118.316047668457,24.4323444366455
寺廟,福安宮,臺中市,臺中市沙鹿區興仁里沙田路43號,0,0
寺廟,臺南華光堂,臺南市,臺南市東區崇德6街18號,0,0
寺廟,建隆宮,屏東縣,屏東縣萬丹鄉社中村13鄰社上路3號,0,0
寺廟,趙大王廟,連江縣,連江縣莒光鄉西坵坤坵港旁,0,0
寺廟,無極玉宸宮,雲林縣,雲林縣土庫鎮頂寮崙內里56之11號,0,0
寺廟,和平禪寺,桃園市,桃園市大溪區茄苳坑美華里7鄰4之2號,0,0
寺廟,仁愛慈惠宮,臺中市,臺中市大里區成功2路120巷41號,0,0
寺廟,福陽宮,苗栗縣,苗栗縣造橋鄉海埔仔朝陽村9鄰24之4號,0,0
寺廟,五文宮,苗栗縣,苗栗縣獅潭鄉和興獅潭村8鄰13號,0,0
寺廟,迴向殿,金門縣,金門縣金城鎮金門城古城里北門151號,118.309394836426,24.4041633605957
寺廟,慶宏禪寺,臺南市,臺南市官田區大井大崎村12鄰,0,0
寺廟,昭忠堂,金門縣,金門縣金寧鄉安美村慈湖農莊1-6號,118.336517333984,24.4582767486572
寺廟,保安殿,金門縣,金門縣金寧鄉頂埔下湖埔村,0,0
寺廟,德恩殿,南投縣,南投縣中寮鄉和興村2鄰永樂路126號,0,0
寺廟,汶源宮,金門縣,金門縣金沙鎮光前里後水頭34號,118.416831970215,24.4731044769287
寺廟,昭靈宮,金門縣,金門縣金沙鎮碧山三山里38號,0,0
寺廟,萬聖宮,金門縣,金門縣烈嶼鄉楊厝上岐村福上山段,0,0
寺廟,保生大帝廟,金門縣,金門縣烈嶼鄉上庫上岐村3-1號,0,0
寺廟,保安宮,南投縣,南投縣草屯鎮碧洲里9鄰草溪路18號,0,0
寺廟,慈聖宮,南投縣,南投縣草屯鎮土城里10鄰三層巷11之2號,0,0
寺廟,龍塘古廟,金門縣,金門縣金寧鄉安岐安美村80-5號,0,0
寺廟,先農廟,金門縣,金門縣金寧鄉北山古寧村177-1號,0,0
寺廟,大道宮,金門縣,金門縣金城鎮珠山珠沙里66號,0,0
寺廟,金龍寺,高雄市,高雄市內門區吉民金竹里47-2號,0,0
寺廟,勇伯公宮,金門縣,金門縣金城鎮前水頭金水里,0,0
寺廟,慈仁寺,雲林縣,雲林縣二崙鄉大庄村4鄰大庄路28之1號,0,0
寺廟,柏埔堂,彰化縣,彰化縣二林鎮後厝里3鄰新華巷6號,0,0
寺廟,永興宮,桃園市,桃園市觀音區下大堀大同村9鄰103號,0,0
寺廟,新港慈惠堂,臺東縣,臺東縣成功鎮三民里7鄰富榮路126之1號,0,0
寺廟,晉安宮,雲林縣,雲林縣四湖鄉南溪尾溪尾村100號,0,0
寺廟,宏善堂,苗栗縣,苗栗縣銅鑼鄉朝北朝陽村4鄰47號,0,0
寺廟,慈航寺,金門縣,金門縣金沙鎮汶沙里忠孝新邨107號,0,0
寺廟,無極慈天宮,臺南市,臺南市將軍區源頭保源村87之6號,0,0
寺廟,金榮殿,金門縣,金門縣金沙鎮中蘭何斗里9號之1,0,0
寺廟,碧山宮,金門縣,金門縣金沙鎮蔡厝光前里30-2號,0,0
寺廟,威靈殿,金門縣,金門縣金寧鄉中堡安美村,0,0
寺廟,法明寺,苗栗縣,苗栗縣頭屋鄉明德村明德路4鄰42號,0,0
寺廟,朝南宮,彰化縣,彰化縣埔心鄉新館村新館路234號,0,0
寺廟,豐榮下街雙福祠,臺中市,臺中市豐原區中正路212巷12號,0,0
寺廟,保仁宮,新北市,新北市坪林區仁里扳7號,0,0
寺廟,港豐宮,屏東縣,屏東縣滿州鄉,0,0
寺廟,大羅天仙府,雲林縣,雲林縣林內鄉中興林茂村路19之1號,-0.000248909287620336,0.000188827703823335
寺廟,修文殿,金門縣,金門縣金城鎮山前賢庵里20號,0,0
寺廟,永鎮宮,臺南市,臺南市安南區鹽田6街26號,0,0
寺廟,寶靈殿,金門縣,金門縣金寧鄉中堡安美村,0,0
寺廟,無極玄聖宮,苗栗縣,苗栗縣苑裡鎮城南里4鄰51之1號,0,0
寺廟,高枧頭福德祠,新竹縣,新竹縣芎林鄉文林村4鄰文昌街35-1號,0,0
寺廟,進雄宮,雲林縣,雲林縣林內鄉烏塗村8鄰48之6號,0.000163078206242062,0.00016307839541696
寺廟,金木哪吒太子行宮,苗栗縣,苗栗縣竹南鎮崎頂里保興街15鄰38號,0,0
寺廟,開元玉旨寺,桃園市,桃園市龜山區馬頭厝15鄰11號,0,0
寺廟,振興宮,彰化縣,彰化縣二林鎮中西里7鄰中三路1號,0,0
寺廟,忠義堂,宜蘭縣,宜蘭縣五結鄉利澤村下福路邊,0,0
寺廟,賜安宮,雲林縣,雲林縣斗南鎮石龜溪段1207-2地號,0,0
寺廟,池和宮,新竹縣,新竹縣新豐鄉新豐村15鄰池府路156號,0,0
寺廟,靈山聖道院,屏東縣,屏東縣車城鄉內埔溫泉村38-6號,0,0
寺廟,元德寶宮,桃園市,桃園市龜山區關公嶺龍壽村16號,0,0
寺廟,下排仔福德祠,新竹縣,新竹縣竹東鎮忠孝里6鄰康寧街236之1號,0,0
寺廟,至揚宮,彰化縣,彰化縣二林鎮中西里二城路8鄰771號,0,0
寺廟,德龍宮振育堂,南投縣,南投縣魚池鄉魚池村五城村1鄰五城巷98-1號,0,0
寺廟,北鎮廟,金門縣,金門縣金城鎮北門里中興路146巷1號,118.31884765625,24.4338397979736
寺廟,金天堂,南投縣,南投縣魚池鄉大林村1鄰金天巷29號,0,0
寺廟,北嵩福德祠,臺中市,臺中市豐原區中陽路537巷內,0,0
寺廟,成德堂,雲林縣,雲林縣麥寮鄉光大寮麥豐村5鄰41號,0,0
寺廟,雙吉宮,南投縣,南投縣埔里鎮雙吉路8之1號,0,0
寺廟,玉衡宮通天堂,南投縣,南投縣埔里鎮杷城里2鄰長春路13號,0,0
寺廟,三慈濟普道寺,雲林縣,雲林縣二崙鄉田寮安定村130號,0,0
寺廟,三濟宮,雲林縣,雲林縣大埤鄉興安村50號,0,0
寺廟,保安宮,雲林縣,雲林縣大埤鄉妮姑庵南和村,0,0
寺廟,佛頂山朝聖寺,臺南市,臺南市左鎮區菜寮榮和里106之1號,0,0
寺廟,受龍宮,南投縣,南投縣鹿谷鄉清水村外城巷15號,0,0
寺廟,竹林禪寺,南投縣,南投縣埔里鎮蜈蚣里18鄰榮光路48號,0,0
寺廟,德林寺,桃園市,桃園市蘆竹區中福村12鄰龍安街2段985號,0,0
寺廟,天后宮,金門縣,金門縣金城鎮西海路5號,118.315956115723,24.4256820678711
寺廟,北港武德宮,雲林縣,雲林縣北港鎮新街里華勝路330號,0,0
寺廟,竹滬北極殿,高雄市,高雄市路竹區竹滬里華山路135號,0,0
寺廟,慈湖寺,新北市,新北市萬里區雙興里太和路10號之1,0,0
寺廟,海埔厝慶安宮,彰化縣,彰化縣鹿港鎮海埔里海埔巷海埔厝段475之1地號,0,0
寺廟,萬善公祠,雲林縣,雲林縣林內鄉九芎村大同路22鄰15之1號,0.000154495253809728,0.000188827514648438
寺廟,雙峰巖,金門縣,金門縣金城鎮大古崗古城里88號,118.317794799805,24.4332942962646
寺廟,萬善公祠,苗栗縣,苗栗縣竹南鎮崁頂新南里24鄰58之22號,0,0
寺廟,竹東鎮榮華里福德祠,新竹縣,新竹縣竹東鎮榮華里24鄰新民路102號,0,0
寺廟,薛玉聖媽廟,雲林縣,雲林縣虎尾鎮新吉里7鄰,0,0
寺廟,慈聖堂,雲林縣,雲林縣虎尾鎮下南延平里45之1號,0,0
寺廟,鎮平福德祠,彰化縣,彰化縣田尾鄉和平段691之2號,0,0
寺廟,聚德堂,桃園市,桃園市大園區後厝村9鄰國際路2段735號,0,0
寺廟,三坪院,南投縣,南投縣竹山鎮竹山里10鄰竹山路16號,0,0
寺廟,順天府,雲林縣,雲林縣四湖鄉林東村14鄰中華路81號,0,0
寺廟,久長安宮,彰化縣,彰化縣彰化市寶廓里寶廓路140號,0,0
寺廟,武孚廟,金門縣,金門縣金城鎮小西門珠沙里22號,118.317649841309,24.4326019287109
寺廟,王公廟,金門縣,金門縣烈嶼鄉上林村后井7-1號,118.24055480957,24.4294471740723
寺廟,五權村福德宮,桃園市,桃園市大園區下埔五權村4鄰47-3號,0,0
寺廟,回善寺,桃園市,桃園市楊梅區二重溪中山里2鄰43號,0,0
寺廟,南瑤宮,彰化縣,彰化縣彰化市南瑤里南瑤路43號,0,0
寺廟,竹南寺,苗栗縣,苗栗縣竹南鎮正南里13鄰中正路71號,0,0
寺廟,南衡宮,苗栗縣,苗栗縣獅潭鄉北庄獅潭村竹木村5鄰28號,1.79169819602976E-05,1.78099162440049E-05
寺廟,棲堂廟,金門縣,金門縣金沙鎮東珩光前里15號,0,0
寺廟,鎮南宮,金門縣,金門縣金寧鄉后沙后盤村8-8號,0,0
寺廟,福德祠,屏東縣,屏東縣萬丹鄉灣內段962號,0,0
寺廟,忠仁廟,金門縣,金門縣烈嶼鄉西宅林湖村26號,0,0
寺廟,新興宮,雲林縣,雲林縣四湖鄉中興三姓村18之1號,0,0
寺廟,田心福德祠,苗栗縣,苗栗縣苑裡鎮田心里,0,0
寺廟,靝龍堂,桃園市,桃園市大園區許厝港南港村3鄰85-1號,0,0
寺廟,廣福祠,彰化縣,彰化縣田尾鄉打簾村4鄰民生路,0,0
寺廟,夫人廟,澎湖縣,澎湖縣西嶼鄉赤馬村,0,0
寺廟,壽埤福德祠,屏東縣,屏東縣內埔鄉竹圍村壽埤巷,0,0
寺廟,昭安宮,宜蘭縣,宜蘭縣蘇澳鎮龍德里1鄰育英路27號,0,0
寺廟,雙忠廟,金門縣,金門縣金寧鄉湖下湖埔村4號,0,0
寺廟,靈濟宮,金門縣,金門縣金寧鄉西浦頭安美村1號,118.321418762207,24.4837627410889
寺廟,仰雙巖,金門縣,金門縣金城鎮大古崗古城里1號,118.317436218262,24.4329013824463
寺廟,天后宮,金門縣,金門縣金沙鎮西園里田墩1-1號,118.408981323242,24.5005931854248
寺廟,施公祠,澎湖縣,澎湖縣馬公市中央里中央街10鄰1巷10號,0,0
寺廟,萬善祠,南投縣,南投縣國姓鄉國姓村國姓路,0,0
寺廟,嘉長宮,南投縣,南投縣草屯鎮加老里加老東路68號https://rhttpeligion.moi.gov.tw/Religion,-0.0008046631119214,-0.00285387202166021
寺廟,廣濟寺,雲林縣,雲林縣褒忠鄉埔姜村13鄰太湖路43號,0,0
寺廟,金蓮淨苑,金門縣,金門縣金城鎮民權路70巷1-1號,118.313385009766,24.4331684112549
寺廟,南廍福安宮,臺南市,臺南市官田區南廍里5鄰南廍66號,0,0
寺廟,福德祠,屏東縣,屏東縣枋寮鄉太源村太源路旁,0,0
寺廟,靖海堂,金門縣,金門縣金沙鎮斗門何斗里35-2號,0,0
寺廟,福慧寺,金門縣,金門縣金沙鎮陽翟光前里209號,0,0
寺廟,大士宮,金門縣,金門縣金沙鎮沙美汶沙里186號,0,0
寺廟,蓮法宮,金門縣,金門縣金沙鎮浦邊浦山里25-1號,0,0
寺廟,順濟宮,金門縣,金門縣金湖鎮料羅里47號,118.43546295166,24.4184684753418
寺廟,玉明寺,南投縣,南投縣南投市漳和里30鄰文化路783巷31號,0,0
寺廟,文化福德宮,新竹縣,新竹縣竹北市十興里40鄰文福街11號,0,0
寺廟,竹北天后宮,新竹縣,新竹縣竹北市豆子埔竹仁里中正東路328巷29號,0,0
寺廟,正德廟,澎湖縣,澎湖縣西嶼鄉竹灣村,0,0
寺廟,保福宮,嘉義市,嘉義市西區鳥岫仔58號之1,0,0
寺廟,隆山宮,嘉義縣,嘉義縣水上鄉巷口段三和村36之1地號,0,0
寺廟,保安廟,金門縣,金門縣金寧鄉古寧村林厝,118.315399169922,24.476203918457
寺廟,雙鯉古地,金門縣,金門縣金寧鄉古寧頭寧湖號801號,0,0
寺廟,正慧淨舍,臺南市,臺南市玉井區玉田里35鄰大成路206巷33號,0,0
寺廟,奉山龍鳳堂,嘉義縣,嘉義縣新港鄉南港南港村8鄰185之1號,0,0
寺廟,仙鶴寺,金門縣,金門縣金湖鎮成功正義里116-1號,0,0
寺廟,先帝廟,屏東縣,"屏東縣萬巒鄉萬全村褒忠路  號",0,0
寺廟,保安宮,雲林縣,雲林縣水林鄉溪墘4鄰33號,0,0
寺廟,真武殿,金門縣,金門縣金寧鄉北山古寧村113號,0,0
寺廟,威靈宮,金門縣,金門縣金寧鄉北山古寧村185-1號,0,0
寺廟,福德宮,雲林縣,雲林縣林內鄉烏塗村22之3號,0.00139904115349054,0.000600814935751259
寺廟,福德祠,新竹縣,新竹縣新埔鎮第一市場新埔里和平街,0,0
寺廟,福靈宮,屏東縣,屏東縣新園鄉新園段582號,0,0
寺廟,後庄福德祠,苗栗縣,苗栗縣頭份市後庄里2鄰文林路36巷96號,0,0
寺廟,桃園市興德宮,桃園市,桃園市桃園區中興里12鄰保定6街16號,0,0
寺廟,神興宮,南投縣,南投縣草屯鎮土城里二坪巷38號,-0.00122308789286762,-0.00314355059526861
寺廟,受興宮,南投縣,南投縣水里鄉水里村山頂巷75號,0,0
寺廟,啟示玄機院,南投縣,南投縣魚池鄉中明村8鄰文正巷5-10號,0,0
寺廟,惠興宮,雲林縣,雲林縣二崙鄉來惠村15鄰惠來路45之1號,0,0
寺廟,閩南臺澎玉皇宮,澎湖縣,澎湖縣湖西鄉果葉村110-12號,0,0
寺廟,源山宮,金門縣,金門縣金寧鄉榜林村昔果山52-5號,118.350616455078,24.4291076660156
寺廟,文德宮,彰化縣,"彰化縣芳苑鄉頂 村中興巷2號",0,0
寺廟,普光精舍,南投縣,南投縣埔里鎮福興里3鄰福長路12巷26號,0,0
寺廟,天峘聖堂,臺南市,臺南市南化區十化里14鄰293號,0,0
寺廟,明誠佛堂,屏東縣,屏東縣長治鄉德榮村西埔巷55號,0,0
寺廟,景山宮,金門縣,金門縣金沙鎮后珩西園里15號,0,0
寺廟,文朱殿,臺南市,臺南市安平區效忠街63號,0,0
寺廟,北極殿,澎湖縣,澎湖縣湖西鄉果葉村1號,0,0
寺廟,三和三元宮,桃園市,桃園市龍潭區直坑三和村10鄰21號,0,0
寺廟,宣化堂,高雄市,高雄市旗山區廟前街28號,1.07288415165385E-05,1.07288415165385E-05
寺廟,天台寶宮,屏東縣,屏東縣潮州鎮三共里重義巷50號,0,0
寺廟,震威宮,彰化縣,彰化縣溪州鄉水尾村村東一巷9號,0,0
寺廟,法明禪寺修平靈堂,花蓮縣,花蓮縣吉安鄉仁安村海濱路135號,0,0
寺廟,天上聖母廟,連江縣,連江縣莒光鄉福正村燈塔下方,0,0
寺廟,安南宮,雲林縣,雲林縣臺西鄉成功牛厝村20鄰路178號,0,0
寺廟,鎮西宮,金門縣,金門縣金寧鄉南山古寧村西境,0,0
寺廟,代天府,金門縣,金門縣金寧鄉下埔下湖埔村1-1號,118.31468963623,24.468692779541
寺廟,協志宮,花蓮縣,花蓮縣壽豐鄉路內志學村13號,0,0
寺廟,鏜元府,雲林縣,雲林縣水林鄉尖山腳27號,0,0
寺廟,廣澤宮,苗栗縣,苗栗縣竹南鎮下街仔開元里8鄰37之3號,0,0
寺廟,玉寶宮,桃園市,桃園市龜山區員林坑大坑村9鄰15-6號,0,0
寺廟,宏濟殿,金門縣,金門縣金寧鄉榜林村,0,0
寺廟,護安宮,金門縣,金門縣金湖鎮庵邊蓮庵里35號,0,0
寺廟,財團法人台中市大里杙福興宮,臺中市,臺中市大里區新里里福興街1號,0,0
寺廟,鳳德三子亭,高雄市,高雄市鳳山區中和里3鄰信義街303之1號,0,0
寺廟,萬應公廟,屏東縣,屏東縣恆春鎮水泉里白砂路,0,0
寺廟,真如殿,彰化縣,彰化縣鹿港鎮洛津里桂花巷5號,0,0
寺廟,文吉士廟,高雄市,高雄市彌陀區文安里文安路3巷2號,0,0
寺廟,聖侯廟,金門縣,金門縣金沙鎮西山前三山里5號,0,0
寺廟,仁壽宮,高雄市,高雄市楠梓區大學26街716號,0,0
寺廟,右昌元帥府,高雄市,高雄市楠梓區右昌1巷1號,0,0
寺廟,白馬尊王,連江縣,連江縣莒光鄉福正村大埔港下方,0,0
寺廟,諾那華藏精舍,南投縣,南投縣埔里鎮廣成里12鄰覆金路2之1號,0,0
寺廟,同天宮,南投縣,南投縣埔里鎮杷城里2鄰民富路57號,0,0
寺廟,明聖宮,彰化縣,彰化縣員林市林厝里山腳路一段坡姜巷246弄110號,0,0
寺廟,青龍宮,屏東縣,屏東縣內埔鄉大新村中央巷1號,0,0
寺廟,保安宮,彰化縣,彰化縣和美鎮竹圍里彰新路四段115號,0,0
寺廟,永和宮,南投縣,南投縣草屯鎮中原里4鄰中和路57-1號,0,0
寺廟,萬善堂,宜蘭縣,宜蘭縣五結鄉成興村五濱路一段路邊,0,0
寺廟,萬善祠,基隆市,基隆市中正區調和街調和隧道邊,0,0
寺廟,永明山宏華寺,花蓮縣,花蓮縣壽豐鄉米棧村米棧路一段33號,0,0
寺廟,開基福德祠,苗栗縣,苗栗縣銅鑼鄉東田洋銅鑼村20鄰,0,0
寺廟,誠聖宮,桃園市,桃園市蘆竹區頭前坑口村16鄰40-2號,0,0
寺廟,鎮海宮,雲林縣,雲林縣臺西鄉海口村4鄰中山路299巷34之16號,0,0
寺廟,竹北菩提講堂,新竹縣,新竹縣竹北市福德里12鄰信義街9號,0,0
寺廟,國王宮(田寮村),新竹縣,新竹縣橫山鄉田寮村14鄰,0,0
寺廟,台中汨音寺,臺中市,臺中市南屯區同安南巷12號,7.15611895429902E-05,1.20164140753332E-05
寺廟,龍天宮,新竹縣,新竹縣橫山鄉十分寮力行村5鄰74號,0,0
寺廟,厲王爺廟,金門縣,金門縣烈嶼鄉上林村路,0,0
寺廟,烏面將軍廟,彰化縣,彰化縣秀水鄉陝西村,0,0
寺廟,慈航宮,南投縣,南投縣南投市嘉興里13鄰樂利路99巷369號,0,0
寺廟,萬善祠(新鳳村),新竹縣,新竹縣芎林鄉燥坑新鳳村9鄰1之1號,0,0
寺廟,圓照寺,高雄市,高雄市鳥松區坔埔里坔埔4巷10號,0,0
寺廟,天后宮,連江縣,連江縣莒光鄉田沃村85高地下方,0,0
寺廟,蓮華精舍,桃園市,桃園市觀音區青埔藍埔里11鄰52之22號,0,0
寺廟,三安宮,雲林縣,雲林縣東勢鄉復興村8鄰德政街10之6號,0,0
寺廟,新港港安宮,新竹縣,新竹縣竹北市新港里4鄰漁寮61之5號,0,0
寺廟,青山弘法宮,新竹縣,新竹縣竹北市溪州里7鄰新寮街101之1號,0,0
寺廟,張公聖君廟,高雄市,高雄市內門區廣興溝坪里23~6號,0,0
寺廟,忠烈祠,金門縣,金門縣金寧鄉北山古寧頭,0,0
寺廟,靈濟宮,金門縣,金門縣金城鎮前水頭金水里96號,118.317985534668,24.4333591461182
寺廟,寶平寺,苗栗縣,苗栗縣頭份市藤坪濫坑里4鄰42號,0,0
寺廟,財團法人金城鎮東門里代天府,金門縣,金門縣金城鎮珠浦東路12-1號,118.319602966309,24.4309005737305
寺廟,楊府廟,屏東縣,屏東縣枋寮鄉東山路,0,0
寺廟,財團法人大寮赤崁福德爺廟,高雄市,高雄市大寮區義仁里鳳林一路329巷29之1號,0,0
寺廟,天后宮,雲林縣,雲林縣二崙鄉大義村大義46號,0,0
寺廟,大園鄉竹圍村海方厝新興宮,桃園市,桃園市大園區竹圍村成功街59巷3弄,0,0
寺廟,慶和宮,臺南市,臺南市安南區長和街一段845巷56弄6號,0,0
寺廟,鎮南宮,金門縣,金門縣金寧鄉南山古寧頭,0,0
寺廟,中正里福德祀,苗栗縣,苗栗縣苑裡鎮中正里13鄰,8.90544924914138E-06,8.0466314102523E-05
寺廟,東和宮,嘉義縣,嘉義縣太保市東勢寮東勢里2鄰（東勢段330之1地號）,0,0
寺廟,胡將軍廟,連江縣,連江縣莒光鄉青帆村山海一家旁,0,0
寺廟,保障宮,桃園市,桃園市觀音區保障村15鄰大觀路一段579號,0,0
寺廟,萬善祠,苗栗縣,苗栗縣苑裡鎮苑港里1鄰,0,0
寺廟,中壢祥光寺,桃園市,桃園市中壢區忠福里16鄰中福路622號,0,0
寺廟,拱福宮,金門縣,金門縣烈嶼鄉雙口西口村14-1號,0,0
寺廟,龍洲宮,苗栗縣,苗栗縣竹南鎮青草崎頂里1鄰8-13號,0,0
寺廟,精忠龍德宮,桃園市,桃園市龜山區光峰精忠村光峰路111巷26號,0,0
寺廟,福山宮,南投縣,南投縣南投市福山里18鄰八卦路401號,0,0
寺廟,永安宮,臺南市,臺南市佳里區頂廍里10鄰116號,0,0
寺廟,福德祠,屏東縣,屏東縣萬丹鄉磚寮村5鄰,0,0
寺廟,旭安府,雲林縣,雲林縣臺西鄉三姓蚊港村85之2號,0,0
寺廟,明德聖堂,嘉義縣,嘉義縣水上鄉大堀尾大堀村2鄰12之12號,0,0
寺廟,福德祠,桃園市,桃園市中壢區永福里7鄰西園路97號,0,0
寺廟,內壢紫竹林觀音寺,桃園市,桃園市中壢區文化里1鄰吉林路125號,0,0
寺廟,加投福德宮,新北市,新北市萬里區大鵬里萬里加投45號前方50公尺路旁,-1.87671539606526E-05,-5.36442075826926E-06
寺廟,天賜佛院,苗栗縣,苗栗縣造橋鄉阿義埤豐湖村11鄰8之2號,0,0
寺廟,代安宮,雲林縣,雲林縣臺西鄉萬興和豐村路88號,0,0
寺廟,關聖帝廟,金門縣,金門縣金湖鎮下湖溪湖里32-2號,0,0
寺廟,英武山岩,金門縣,金門縣金湖鎮山外里1號,118.42554473877,24.4512348175049
寺廟,平和厝福德廟,彰化縣,彰化縣彰化市西門口段587地號,0,0
寺廟,順天宮,桃園市,桃園市蘆竹區新庄子新莊村4鄰37-3號,0,0
寺廟,養龍宮,南投縣,南投縣魚池鄉新城村4鄰修正巷11號,0,0
寺廟,來鳳宮,金門縣,金門縣金城鎮後豐港36號,118.302108764648,24.4190635681152
寺廟,山知崙奉天宮,嘉義縣,嘉義縣竹崎鄉山知崙義隆村4鄰27之9號,0,0
寺廟,聖皇宮,屏東縣,屏東縣恆春鎮頭溝里,0,0
寺廟,朱池隆宮,屏東縣,屏東縣崁頂鄉崁頂村中正路地號583號,0,0
寺廟,東港鎮中聖堂,屏東縣,屏東縣東港鎮鎮海里7鄰嘉新路二段206號,0,0
寺廟,包青天廟,雲林縣,雲林縣虎尾鎮大屯東屯里,0,0
寺廟,寬龍宮,南投縣,南投縣埔里鎮麒麟里5鄰武界路69號,0,0
寺廟,福德廟,宜蘭縣,宜蘭縣冬山鄉冬山鄉南興村南興路22號,0,0
寺廟,神農宮,高雄市,高雄市內門區夏梅林內東里4鄰3-1號,0,0
寺廟,廣濟宮,新竹縣,新竹縣橫山鄉內灣村6鄰大同路1號,0,0
寺廟,海印寺,金門縣,金門縣金湖鎮海印寺1號,118.418098449707,24.4627990722656
寺廟,靈法寺,澎湖縣,澎湖縣湖西鄉果葉村161號,0,0
寺廟,龍慶宮,澎湖縣,澎湖縣西嶼鄉后螺合界村1號,0,0
寺廟,竹滬華山殿,高雄市,高雄市路竹區竹滬里華山路七號,0,0
寺廟,三寶宮,雲林縣,雲林縣虎尾鎮三合里8鄰吳厝76號,0,0
寺廟,香光精舍,南投縣,南投縣埔里鎮向善里4鄰觀音路87號,0,0
寺廟,慈雲寺,彰化縣,彰化縣田尾鄉海豐村光華巷56號,0,0
寺廟,大悲寺,雲林縣,雲林縣大埤鄉妮姑庵南和村68之20號,0,0
寺廟,保安宮,彰化縣,彰化縣大城鄉民生巷潭墘鄉18號,0,0
寺廟,開復廟,雲林縣,雲林縣林內鄉林南村成功路48號,3.43320971296635E-05,5.14984712935984E-05
寺廟,建安堂,南投縣,南投縣水里鄉新興村帝君巷36號,0,0
寺廟,張將軍廟,連江縣,連江縣東引鄉中柳村燈塔旁,0,0
寺廟,福源宮,新竹縣,新竹縣竹北市福興路973號,0,0
寺廟,大智寺,新竹縣,新竹縣竹北市7鄰新庄里中正西路1879巷79號,0,0
寺廟,城隍廟,高雄市,高雄市茄萣區萬福里16鄰福德路280號,9.65595754678361E-05,0.000203847986995243
寺廟,中和里福德宮,臺中市,臺中市南屯區中和巷39之6號,0,0
寺廟,龍德城隍爺廟,宜蘭縣,宜蘭縣蘇澳鎮龍德里蘇濱路3段105號,7.51018887967803E-05,0.000386238301871344
寺廟,樂天宮,彰化縣,彰化縣鹿港鎮廖厝里學子巷36號,0,0
寺廟,安溪宮,臺南市,臺南市西港區溪埔寮新復村8鄰8號,0,0
寺廟,栢龍寺,彰化縣,彰化縣永靖鄉福興村中肚巷43號,0,0
寺廟,環江宮,金門縣,金門縣金沙鎮大地大洋里24號,0,0
寺廟,威震天門廟,金門縣,金門縣金寧鄉西堡39號,118.336410522461,24.4608764648438
寺廟,張公宮,金門縣,金門縣金城鎮金門城古城里東門,0,0
寺廟,關聖帝君廟,南投縣,南投縣南投市振興巷振興里29弄18號,0,0
寺廟,溫靈宮,苗栗縣,苗栗縣竹南鎮塭仔頭港墘里13鄰1之26號,1.79169819602976E-05,1.78099162440049E-05
寺廟,朝陽宮,南投縣,南投縣草屯鎮北投里史館路239號,0,0
寺廟,泰安殿,雲林縣,雲林縣大埤鄉頂埤三結村10號,0,0
寺廟,橫山里永和宮,臺中市,臺中市大雅區橫山里永和路76號,0,0
寺廟,玉窩堂,臺南市,臺南市東區立德8路3巷36號,0,0
寺廟,鎮安村福德寺,屏東縣,屏東縣林邊鄉子口段159-3號,0,0
寺廟,民峰福德祠,臺中市,臺中市沙鹿區鹿峰里星河路507號,0,0
寺廟,萬世聖母宮,屏東縣,屏東縣屏東市瑞光里菸廠東巷46號,0,0
寺廟,龍虎宮,屏東縣,屏東縣屏東市溝美里和洋巷32號,0,0
寺廟,內門紫雲宮,高雄市,高雄市內門區中埔頭觀亭里1號,0,0
寺廟,忠義廟,金門縣,金門縣金寧鄉東堡安美村33號,0,0
寺廟,永安宮,雲林縣,雲林縣林內鄉永安烏麻村3鄰69之1號,0.000214576793950982,0.000150203806697391
寺廟,忠義公廟,雲林縣,雲林縣林內鄉九芎村1鄰大同路6之1號,0,0
寺廟,順天宮,彰化縣,彰化縣田中鎮平和里山腳路五段246號,0,0
寺廟,南天宮,南投縣,南投縣水里鄉玉峰村萬壽巷18號,0,0
寺廟,憫世寶宮,南投縣,南投縣水里鄉水里村水里一路56號,0,0
寺廟,鎮東宮,金門縣,金門縣金寧鄉北山古寧頭,0,0
寺廟,廣玄宮,金門縣,金門縣金寧鄉仁愛新村133號1樓,0,0
寺廟,北柵福德祠,屏東縣,屏東縣內埔鄉美和村美和段地號:988號,0,0
寺廟,靈山聖地北靈宮,桃園市,桃園市龜山區大青坑龍壽村17鄰12之1號,0,0
寺廟,鼓山坑福德祠,高雄市,高雄市旗山區旗山段615之1號,0,0
寺廟,森安宮,高雄市,高雄市旗山區太平里德義街11號,0,0
寺廟,天后宮,高雄市,高雄市美濃區瀰濃里永安路269巷1號,0,0
寺廟,聚東宮,雲林縣,雲林縣臺西鄉萬興和豐村33鄰46之26號,0,0
寺廟,觀水宮,高雄市,高雄市燕巢區角宿里滾水路150號,0,0
寺廟,建安宮,屏東縣,屏東縣東港鎮下部里下部路135號,0,0
寺廟,雲華庵,南投縣,南投縣埔里鎮福興里3鄰福長路12巷55號,0,0
寺廟,景靈宮,南投縣,南投縣埔里鎮薰化里21鄰南興街396號,0,0
寺廟,明新堂,苗栗縣,苗栗縣銅鑼鄉東田洋銅鑼村22鄰35號,0,0
寺廟,真武廟,金門縣,金門縣烈嶼鄉下田西口村4號,0,0
寺廟,保安宮,南投縣,南投縣埔里鎮清新里新生路11鄰19號,0,0
寺廟,臺中復興宮,臺中市,臺中市南區有恆街9巷1之1號,0,0
寺廟,保安公廟,雲林縣,雲林縣臺西鄉三姓蚊港村寮,0,0
寺廟,中天殿,屏東縣,屏東縣林邊鄉水利村豐漁路175號,0,0
寺廟,鎮東宮,雲林縣,雲林縣麥寮鄉中山麥豐村6鄰路43號,0,0
寺廟,祥林精舍,南投縣,南投縣埔里鎮水頭里10鄰東潤路36號,0,0
寺廟,廣福宮,南投縣,南投縣埔里鎮成功里5鄰種瓜路87號,0,0
寺廟,保安宮,屏東縣,屏東縣車城鄉新街村6鄰新街路69巷10之2號,0,0
寺廟,碧湖殿,金門縣,金門縣金湖鎮湖前新湖里,0,0
寺廟,寂照蘭若,南投縣,南投縣魚池鄉大雁村1鄰山楂腳巷6-3號,0,0
寺廟,聖福宮,桃園市,桃園市中壢區文化里24鄰忠孝路401-1號,0,0
寺廟,金天宮,臺南市,臺南市東區府連路312巷3號,0,0
寺廟,顯靈宮,雲林縣,雲林縣臺西鄉三和富琦村18鄰28-10號,0,0
寺廟,正德寺,嘉義縣,嘉義縣番路鄉頂角仔江西村5鄰20之1號,0,0
寺廟,復興寺,雲林縣,雲林縣水林鄉山寮路15之1號,0,0
寺廟,萬勝宮,屏東縣,屏東縣林邊鄉勝利竹林村路16-10號,0,0
寺廟,崇佛寺,苗栗縣,苗栗縣頭份市藤坪濫坑里7鄰165號,0,0
寺廟,金德宮,金門縣,金門縣金沙鎮何斗里下蘭30-2號,118.403213500977,24.4735794067383
寺廟,文昌宮,高雄市,高雄市美濃區龍肚段4248號,0,0
寺廟,福慧山福田寺,新竹縣,新竹縣橫山鄉油羅豐田村7鄰115號,0,0
寺廟,財團法人高雄市鼓壽宮,高雄市,高雄市新興區文衡一路90號,0,0
寺廟,玉渠宮,彰化縣,彰化縣鹿港鎮大有里車圍巷1號,0,0
寺廟,泰安宮,雲林縣,雲林縣大埤鄉嘉興村路30號,1.07288415165385E-05,-0.000107288411527406
寺廟,保蓮殿,金門縣,金門縣金湖鎮西村蓮庵里,0,0
寺廟,孚濟宮,金門縣,金門縣金湖鎮蓮庵里峰上13-2號,118.458038330078,24.4280471801758
寺廟,順聖宮,嘉義縣,嘉義縣水上鄉新厝仔三和村2鄰127之3號,0,0
寺廟,龍聖宮,雲林縣,雲林縣斗六市久安里14鄰深圳路9號,0,0
寺廟,延平震天宮,雲林縣,雲林縣虎尾鎮下南延平里4鄰12號,0,0
寺廟,鷹龍廟,金門縣,金門縣金湖鎮下新厝13號,118.445846557617,24.4521999359131
寺廟,滄龍宮,金門縣,金門縣金湖鎮東村蓮庵里,0,0
寺廟,聚賢禪寺,新竹縣,新竹縣新埔鎮大北坑新北里8鄰28之1號,0,0
寺廟,昭靈宮,苗栗縣,苗栗縣後龍鎮溪洲里15鄰,0,0
寺廟,真武宮,雲林縣,雲林縣大埤鄉豐興嘉興村12號,0,0
寺廟,福樹宮,雲林縣,雲林縣大埤鄉尚義村蘆竹巷26之168號,0,0
寺廟,代天府,金門縣,金門縣金湖鎮后園7-1號,118.402404785156,24.4384841918945
寺廟,順境宮,金門縣,金門縣金湖鎮溪邊溪湖里1號,0,0
寺廟,禪和宮,雲林縣,雲林縣二崙鄉公館庄西村路15之1號,0,0
寺廟,北極殿,屏東縣,屏東縣里港鄉永春村第6鄰,0,0
寺廟,萬里鄉野柳村福德祠,新北市,新北市萬里區港東野柳里路167號(野柳國小左側),0,0
寺廟,欽月殿,金門縣,金門縣金湖鎮復國墩溪湖里,0,0
寺廟,朝隆聖堂,屏東縣,屏東縣東港鎮朝安里新生二路111號,0,0
寺廟,圓通寺,南投縣,南投縣埔里鎮向善里4鄰觀音路80號,0,0
寺廟,威武廟,屏東縣,屏東縣高樹鄉自強鹽樹村路106-8號,0,0
寺廟,福德宮,金門縣,金門縣金沙鎮斗門何斗里1-3號,0,0
寺廟,西嶽廟,金門縣,金門縣金沙鎮西園里田墩1號,118.409187316895,24.5014781951904
寺廟,澤峰宮,金門縣,金門縣金沙鎮高坑30-1號,118.395240783691,24.4666690826416
寺廟,泰山廟,金門縣,金門縣金沙鎮田埔大洋里9號,0,0
寺廟,正德佛堂,高雄市,高雄市鳥松區大華里本館路44之8號,0,0
寺廟,林太師萬應祠,彰化縣,彰化縣芬園鄉嘉北段672地號,0,0
寺廟,鳳邑養心社啟善堂,高雄市,高雄市鳳山區鎮瑞竹里18鄰東2巷12之1號,0,0
寺廟,財團法人台北市雙境廟,臺北市,臺北市中山區松江里松江路235巷22號,0,0
寺廟,財團法人台灣省新竹縣褒忠亭,新竹縣,新竹縣新埔鎮下枋寮下寮里8鄰43號,0,0
寺廟,中南宮,桃園市,桃園市桃園區南門里文山街14鄰33號,0,0
寺廟,日月殿,高雄市,高雄市茄萣區光定里5鄰忠孝街38之1號,0,0
寺廟,三元宮(內立里),新竹縣,新竹縣新埔鎮內立里8鄰關埔路內立段203巷39號,0,0
寺廟,天宮壇,臺南市,臺南市安平區漁河路121號,0,0
寺廟,福德祠,屏東縣,屏東縣長治鄉復興村,0,0
寺廟,泰德堂,雲林縣,雲林縣大埤鄉埤頭三結村313號,0,0
寺廟,靈龍山宣元寺,苗栗縣,苗栗縣頭份市老崎流東里34號,0,0
寺廟,金山福安宮,屏東縣,屏東縣春日鄉春日段445號山地保留地,0,0
寺廟,惠德宮,金門縣,金門縣金城鎮前水頭金水里145號,118.318618774414,24.4338245391846
寺廟,保安廟,金門縣,金門縣金湖鎮溪湖里后壟11號,118.445610046387,24.4518547058105
寺廟,孚濟廟,金門縣,金門縣金湖鎮正義里夏興17-1號,118.396011352539,24.43896484375
寺廟,竹雲庵,屏東縣,屏東縣萬巒鄉萬全村竹雲巷3號,0,0
寺廟,財團法人台灣省嘉義市南屏宮,嘉義市,嘉義市東區太平里林森東路171號,0,0
寺廟,安平宮,雲林縣,雲林縣二崙鄉港後村安平路33號,0,0
寺廟,天聖宮,臺南市,臺南市西港區八份港東里24-3號,0,0
寺廟,番社庄福德祠,新竹縣,新竹縣竹東鎮五豐里1鄰五豐二路53之15號,0,0
寺廟,武昌宮,南投縣,南投縣集集鎮八張里8鄰八張街181號,0,0
寺廟,永安庄福德祠,屏東縣,屏東縣內埔鄉竹圍村永定巷45號,0,0
寺廟,天文宮,苗栗縣,苗栗縣竹南鎮三角店新南里7鄰31號,0,0
寺廟,德安宮,雲林縣,雲林縣北港鎮劉厝里116之1,0,0
寺廟,將軍府,嘉義縣,嘉義縣中埔鄉富收村4鄰頂中下街61號,0,0
寺廟,通法寺,臺北市,臺北市中正區螢圃里廈門街34巷15號,0,0
寺廟,龍鳳宮,高雄市,高雄市內門區坑口永興里13號,0,0
寺廟,山南宮,高雄市,高雄市內門區州界內東里13鄰9號,0,0
寺廟,金聖宮,金門縣,金門縣金寧鄉中堡安美村,0,0
寺廟,華虹宮,彰化縣,彰化縣彰化市延平里7鄰岸頭巷15弄90號,0,0
寺廟,玉旨三真宮,高雄市,高雄市內門區石車光興里3-6號,0,0
寺廟,昭應廟,金門縣,金門縣金寧鄉榜林村后湖40-1號,118.341217041016,24.4184913635254
寺廟,代天宮,屏東縣,屏東縣萬丹鄉頂林段189號,0,0
寺廟,慈安宮,苗栗縣,苗栗縣後龍鎮西社新民里15鄰143-4號,0,0
寺廟,黃正公祠,高雄市,高雄市鼓山區迪化街90號,0,0
寺廟,天彰聖堂,高雄市,高雄市鳳山區北門里博愛路585號,0,0
寺廟,財團法人西螺廣福宮,雲林縣,雲林縣西螺鎮廣福里11鄰新街路32號,0,0
寺廟,福德廟,澎湖縣,澎湖縣西嶼鄉竹灣村,0,0
寺廟,七座厝福德祠,屏東縣,屏東縣內埔鄉豐田村延平巷,0,0
寺廟,福德祠,新竹縣,新竹縣湖口鄉仁勢村9鄰民權街50之1號,0,0
寺廟,福山宮,彰化縣,彰化縣彰化市西南莊福山里148號,0,0
寺廟,社興宮,苗栗縣,苗栗縣竹南鎮中華里10鄰復興路33之1號,0,0
寺廟,順行慈惠堂,苗栗縣,苗栗縣竹南鎮牧場崎頂里2鄰8之20號,0,0
寺廟,夫人媽宮,澎湖縣,澎湖縣西嶼鄉內垵村,0,0
寺廟,陳府將軍廟,南投縣,南投縣草屯鎮南埔里3鄰中正路288-41號,0,0
寺廟,三仙宮,苗栗縣,苗栗縣通霄鎮南和梅南里6鄰路二段458號,0,0
寺廟,保順宮,彰化縣,彰化縣芳苑鄉新寶村芳漢路永豐巷11之1號,0,0
寺廟,伍德宮,金門縣,金門縣金寧鄉南山古寧頭,0,0
寺廟,玄德宮,雲林縣,雲林縣林內鄉林中村榮譽路20號,0,0
寺廟,天官府,金門縣,金門縣金城鎮賢庵里古區28號,118.312408447266,24.4097633361816
寺廟,財團法人台灣省新竹縣犁頭山蓮華寺,新竹縣,新竹縣竹北市犁頭山下十興里18鄰39號,0,0
寺廟,保安殿,金門縣,金門縣金湖鎮溪湖里后壠11號,118.441947937012,24.4489307403564
寺廟,財團法人台灣省嘉義縣民雄鄉大士爺廟,嘉義縣,嘉義縣民雄鄉中樂村中樂路81號,0,0
寺廟,財團法人台北市士林神農宮,臺北市,臺北市士林區前街舊佳里74號,0,0
寺廟,財團法人台灣省新竹縣北埔鄉南天山濟化宮,新竹縣,新竹縣北埔鄉小南坑南坑村3鄰1號,0,0
寺廟,天鎮宮,彰化縣,彰化縣和美鎮南佃里彰頂路17號,0,0
寺廟,旗山李安宮,高雄市,高雄市旗山區新東街29號,0,0
寺廟,象德宮,金門縣,金門縣金湖鎮成功里海邊坡,0,0
寺廟,代天宮,高雄市,高雄市鳳山區瑞興里瑞芳街41號,0,0
寺廟,正軍堂,高雄市,高雄市鳳山區南成里2鄰家和三街100號,0,0
寺廟,龍鳳寺,彰化縣,彰化縣彰化市中華路中央里232號,0,0
寺廟,新埔鎮福慧禪寺,新竹縣,新竹縣新埔鎮汶水坑清水里18鄰103之2號,0,0
寺廟,鹿港鎮廖厝里樂安宮,彰化縣,彰化縣鹿港鎮廖厝里17鄰楊厝巷41號,0,0
寺廟,福德正神宮,金門縣,金門縣金湖鎮溪邊溪湖里,0,0
寺廟,鴨寮保安宮,高雄市,高雄市路竹區鴨寮里保安路88號,0,0
寺廟,樂善宮,屏東縣,屏東縣內埔鄉竹圍村竹西巷37號,0,0
寺廟,祝生廟,南投縣,南投縣鹿谷鄉中厝巷21號,0,0
寺廟,祇園精舍,南投縣,南投縣埔里鎮牛眠里22鄰守城2巷17之1號,0,0
寺廟,福同宮,南投縣,南投縣埔里鎮桃米里4鄰桃米巷40號,0,0
寺廟,導化堂,南投縣,南投縣埔里鎮北梅里10鄰梅子路27號,0,0
寺廟,高樹鄉普陀殿,屏東縣,屏東縣高樹鄉新南村12鄰大和路6-12號,0,0
寺廟,金面山福德廟,宜蘭縣,宜蘭縣頭城鎮金面金面里(金面段大金面小段495-6),0,0
寺廟,受奉宮,南投縣,南投縣埔里鎮福興里2鄰福興路258號,0,0
寺廟,正德佛教文化院,南投縣,南投縣埔里鎮福興里4鄰福興路110巷105號,0,0
寺廟,三合里福德宮,雲林縣,雲林縣虎尾鎮三合里舊部27號,0,0
寺廟,帥天宮,雲林縣,雲林縣虎尾鎮興中里路133號,0,0
寺廟,至賢宮,彰化縣,彰化縣員林市中央里田中央巷2號,0,0
寺廟,集義祠,桃園市,桃園市楊梅區豐野里18鄰新明街59號,0,0
寺廟,廣興宮,臺南市,臺南市西港區中港南海里19鄰24號,0,0
寺廟,頭埤福德正神祠,屏東縣,屏東縣內埔鄉新埔段2329號,0,0
寺廟,紫竹林,宜蘭縣,宜蘭縣蘇澳鎮南公路11號,0,0
寺廟,老頭大王廟,連江縣,連江縣莒光鄉大埔石刻旁,0,0
寺廟,牧馬侯祠,金門縣,金門縣金城鎮庵前賢庵里,0,0
寺廟,復興宮,雲林縣,雲林縣北港鎮府番里60號,0,0
寺廟,福德宮,苗栗縣,苗栗縣竹南鎮中港里13鄰街仔頭3號,0,0
寺廟,菩提蘭若,新竹縣,新竹縣竹北市十興里18鄰犁頭山下40號,0,0
寺廟,永安宮,雲林縣,雲林縣東勢鄉四美村17鄰永安路32-1號,0,0
寺廟,司察堂,彰化縣,彰化縣二林鎮北平里5鄰明泉巷5號,0,0
寺廟,龍鳳宮,南投縣,南投縣魚池鄉水社村6鄰中山路292號,0,0
寺廟,光明王寺,高雄市,高雄市內門區頂庄永興里32-3號,0,0
寺廟,萬善宮,金門縣,金門縣金城鎮金水里塔山電廠旁,0,0
寺廟,財團法人聖廟太元宮,嘉義市,嘉義市東區中山里安樂街74號,0,0
寺廟,莊嚴寺,南投縣,南投縣埔里鎮史港里10鄰永安路6之3號,0,0
寺廟,北嶽殿,雲林縣,雲林縣麥寮鄉忠和海豐村1鄰路24之7號,0,0
寺廟,正義福德宮,苗栗縣,苗栗縣竹南鎮大坪公義里6鄰16之6號,0,0
寺廟,明新書院,南投縣,南投縣集集鎮永昌里東昌巷4號,0,0
寺廟,西中堂,澎湖縣,澎湖縣西嶼鄉池西村,0,0
寺廟,新興宮,高雄市,高雄市茄萣區保定里新庄巷41弄7之1號,0,0
寺廟,石巖洞保安堂,新竹縣,新竹縣橫山鄉九讚頭新興村3鄰58號,0,0
寺廟,財團法人桃園市石雲巖,桃園市,桃園市龜山區石雲路338號,0,0
寺廟,財團法人東山寺,屏東縣,屏東縣屏東市勝利里修德巷6號,0,0
寺廟,財團法人金門縣忠義廟基金會,金門縣,金門縣金湖鎮新市里林森路2號,118.417037963867,24.4413890838623
寺廟,南山指南宮,屏東縣,屏東縣恆春鎮南灣里5鄰,0,0
寺廟,北湳里角潭福德祠,臺中市,臺中市豐原區角潭路一段76號對面,0,0
寺廟,善天寺,南投縣,南投縣埔里鎮珠格里4鄰下湳巷11號,0,0
寺廟,武玄宮,臺南市,臺南市東區崇明10街70巷6號,0,0
寺廟,福安宮,雲林縣,雲林縣麥寮鄉興化興華村厝39號,0,0
寺廟,三聖宮,新竹縣,新竹縣新埔鎮五埔里17鄰三聖路488號,0,0
寺廟,鹿港忠義廟,彰化縣,彰化縣鹿港鎮郭厝里郭厝巷73號,0,0
寺廟,威靈宮,高雄市,高雄市燕巢區瓊林里瓊林路10,0,0
寺廟,代天府白少爺廟,連江縣,連江縣東引鄉樂華村海埔新生地旁,0,0
寺廟,慈鑾宮,金門縣,金門縣金湖鎮新湖漁港新湖里123-2號,118.38924407959,24.4401340484619
寺廟,護國寺,金門縣,金門縣金湖鎮新市里太湖路2段181號,118.41722869873,24.4389362335205
寺廟,財團法人妙雲蘭若,嘉義市,嘉義市東區圳頭里盧厝135號,0,0
寺廟,財團法人桃園佛教蓮社,桃園市,桃園市桃園區東門里7鄰朝陽街12號,0,0
寺廟,帝君廟,雲林縣,雲林縣大埤鄉吉田村6鄰田子林64號,0,0
寺廟,王天府,臺中市,臺中市梧棲區大村里中央路1段566號,0,0
寺廟,慈貞宮,屏東縣,屏東縣林邊鄉林邊小段613-4,0,0
寺廟,旨聖宮,新竹縣,新竹縣竹北市溪洲里7鄰新寮街22號,0,0
寺廟,國姓宮,新竹縣,新竹縣竹北市大眉里1鄰中華路1150巷46弄7之1號,0,0
寺廟,萬祠宮,金門縣,金門縣金湖鎮瓊林里8-1號,118.385330200195,24.4499816894531
寺廟,萬興公廟,金門縣,金門縣金湖鎮料羅里,0,0
寺廟,財團法人台灣省南投縣埔里鎮昭平宮育化堂,南投縣,南投縣埔里鎮清新里12鄰南興街381號,0,0
寺廟,北投埔福德廟,南投縣,南投縣草屯鎮碧峰里7鄰碧峰路159號,0,0
寺廟,龍聖宮,南投縣,南投縣草屯鎮新豐里1鄰防汎路54號,0,0
寺廟,北天宮,高雄市,高雄市內門區中埔里小鳥山37號,0,0
寺廟,內門龍山寺,高雄市,高雄市內門區學子李內門里11鄰9號,0,0
寺廟,天山文衙殿,高雄市,高雄市內門區吉民金竹里1鄰52~10號,0,0
寺廟,保安殿,金門縣,金門縣金寧鄉安岐安美村42-1號,0,0
寺廟,長源宮,雲林縣,雲林縣林內鄉烏塗村長源路3之7號,0,0
寺廟,清秀山宮,金門縣,金門縣金湖鎮前埔山外里1號,0,0
寺廟,珩山宮,金門縣,金門縣金湖鎮珩厝瓊林里2號,0,0
寺廟,先帝廟,屏東縣,屏東縣萬巒鄉新厝村新生路,0,0
寺廟,財團法人台灣省嘉義市城隍廟,嘉義市,嘉義市東區民族里吳鳳北路168號,0,0
寺廟,財團法人台灣省嘉義市天后宮,嘉義市,嘉義市東區林森里林森東路113號,0,0
寺廟,財團法人鳳山佛教蓮社,高雄市,高雄市鳳山區三民里8鄰三民路58號,0,0
寺廟,天和宮,彰化縣,彰化縣二林鎮廣興里7鄰溝頭巷51號,0,0
寺廟,慈天必生宮,雲林縣,雲林縣大埤鄉中埤三結村路21號,0,0
寺廟,朱府王爺廟,金門縣,金門縣烈嶼鄉青岐上岐村46-1號,0,0
寺廟,致興社,南投縣,南投縣草屯鎮致興巷76號,0,0
寺廟,雲洞宮,苗栗縣,苗栗縣頭屋鄉三湖鳴鳳村6鄰20號,4.48464779765345E-05,2.69293323071906E-05
寺廟,文昌祠,新竹縣,新竹縣新埔鎮新民里15鄰成功街202巷7號,0,0
寺廟,九天玄女,金門縣,金門縣烈嶼鄉西口村后宅1號,118.246795654297,24.4404964447021
寺廟,顯靈宮,金門縣,金門縣烈嶼鄉湖井頭西口村,0,0
寺廟,李府將軍廟,金門縣,金門縣烈嶼鄉林邊黃埔村,0,0
寺廟,靈忠廟,金門縣,金門縣烈嶼鄉林湖村東林街52-1號,118.24845123291,24.4288330078125
寺廟,子和宮,高雄市,高雄市內門區頂庄永興里85號,0,0
寺廟,聚善堂,高雄市,高雄市內門區龍山永富里11號,0,0
寺廟,蓮華精舍,高雄市,高雄市內門區玉門永吉里40號,0,0
寺廟,李光前將軍廟,金門縣,金門縣金寧鄉西浦頭安美村101號,118.310935974121,24.4804840087891
寺廟,福清宮,高雄市,高雄市仁武區文化巷76號,0,0
寺廟,財團法人高雄市鳳山區新甲北極殿,高雄市,高雄市鳳山區武漢里7鄰武營路209號,0,0
寺廟,啟明宮,桃園市,桃園市楊梅區高榮里18鄰幼獅路2段388號,0,0
寺廟,福靈宮,桃園市,桃園市楊梅區員本里12鄰新富5街22號,0,0
寺廟,仙祖宮,金門縣,金門縣烈嶼鄉青岐上岐村3號,0,0
寺廟,義德宮,屏東縣,屏東縣屏東市橋南里永興巷20-1號,0,0
寺廟,紫蓮寺,金門縣,金門縣金寧鄉榜林村,0,0
寺廟,承濟殿,金門縣,金門縣金寧鄉榜林村,0,0
寺廟,龍潭天后宮,高雄市,高雄市內門區龍潭東埔里22號,0,0
寺廟,法主天君廟,金門縣,金門縣金寧鄉榜林村昔果山1號,118.350830078125,24.4263820648193
寺廟,廣明宮,南投縣,南投縣集集鎮廣明里北勢巷8號,0,0
寺廟,玄鎮宮,澎湖縣,澎湖縣西嶼鄉池東村,0,0
寺廟,東大福德宮,新竹市,新竹市東大路2段217巷56弄3號,0,0
寺廟,明天宮,桃園市,桃園市楊梅區員本里9鄰民生街577之1號,0,0
寺廟,福仙宮,嘉義縣,嘉義縣中埔鄉鹽館段232之7號,0,0
寺廟,神豐宮,彰化縣,彰化縣二水鄉上豐村山腳路二段,0,0
寺廟,協天宮,雲林縣,雲林縣二崙鄉三塊厝三和村60號,0,0
寺廟,玉旨靖雲宮,雲林縣,雲林縣大埤鄉嘉興村1鄰大埤路397號,0,0
寺廟,鄧安宮,彰化縣,彰化縣鹿港鎮山崙里山寮巷26號,0,0
寺廟,大使爺廟,嘉義縣,嘉義縣民雄鄉覆鼎金北斗村47號,0,0
寺廟,旗山天山寺,高雄市,高雄市旗山區永和里旗文路143號,0,0
寺廟,開台延平郡王祠,屏東縣,屏東縣林邊鄉堤防路15-1號,0,0
寺廟,圓光靜修禪院,新竹縣,新竹縣橫山鄉尖筆窩南昌村1鄰10之1號,0,0
寺廟,龍德寺,雲林縣,雲林縣林內鄉永昌烏麻村160號,0,0
寺廟,彰化八卦山大佛寺,彰化縣,彰化縣彰化市溫泉路31號,0,0
寺廟,澳仔角福德廟,宜蘭縣,宜蘭縣蘇澳鎮港邊里港邊路旁,0,0
寺廟,霖濟宮,彰化縣,彰化縣永靖鄉竹子村竹中巷41號,0,0
寺廟,娘媽祠,高雄市,高雄市大樹區井腳里井腳路坪頂段947地號,0,0
寺廟,佛光社,南投縣,南投縣草屯鎮炎峰里1鄰炎峰街5號,0,0
寺廟,順安府,雲林縣,雲林縣臺西鄉復興和豐村路2號,0,0
寺廟,武安宮,屏東縣,屏東縣潮州鎮興美里興隆街,0,0
寺廟,啟源道院,高雄市,高雄市內門區頂庄永興里5鄰16之2號,0,0
寺廟,泰安宮,金門縣,金門縣金城鎮賢庵里賢厝1號,118.321334838867,24.4191627502441
寺廟,華陽府,雲林縣,雲林縣臺西鄉光華村路100-1號,0,0
寺廟,清水祖師廟,新竹縣,新竹縣竹北市斗崙里福興路973號,0,0
寺廟,東庄福德祠,苗栗縣,苗栗縣頭份市東庄里8德1路,0,0
寺廟,東山寺,屏東縣,屏東縣屏東市勝利里修德巷6號,0,0
寺廟,登瀛書院,南投縣,南投縣草屯鎮新庄里史館路文昌巷30號,0,0
寺廟,御史林太師廟,南投縣,南投縣草屯鎮御史里21鄰中正路1374號,0,0
寺廟,仰雲殿,金門縣,金門縣金城鎮官裡賢庵里,0,0
寺廟,新興宮,苗栗縣,苗栗縣竹南鎮竹興里16鄰新興街40號,0,0
寺廟,觀音淨苑,苗栗縣,苗栗縣苗栗市大坑新川里4鄰16-13號,0,0
寺廟,朝天宮,高雄市,高雄市內門區二埔三平里4-1號,0,0
寺廟,崁頂朝陽宮,苗栗縣,苗栗縣竹南鎮崁頂新南里14鄰37號,0,0
寺廟,普道院,彰化縣,彰化縣和美鎮山犁里仁宇路177巷9號,0,0
寺廟,淨慈寺,彰化縣,彰化縣芳苑鄉崙腳村10鄰草崙路67巷85號,0,0
寺廟,興天宮,高雄市,高雄市內門區廣福溝坪里40號,0,0
寺廟,內門南海紫竹寺,高雄市,高雄市內門區內埔內豐里12鄰82號,0,0
寺廟,埔尾天后宮,高雄市,高雄市內門區埔尾瑞山里1鄰12-1號,0,0
寺廟,招寶宮,宜蘭縣,宜蘭縣蘇澳鎮岳明新村91-1號,0,0
寺廟,福德廟,宜蘭縣,宜蘭縣蘇澳鎮嶺腳路港邊路134-1號旁,0,0
寺廟,北嶺古安宮,高雄市,高雄市路竹區北嶺里民有路121號,0,0
寺廟,中壇元帥廟,屏東縣,屏東縣內埔鄉內田村崇文巷15號,0,0
寺廟,太皇殿,高雄市,高雄市茄萣區吉定里10鄰忠孝街22號,0,0
寺廟,財團法人鳳邑靜心社舉善堂,高雄市,高雄市鳳山區和興里20鄰五甲一路213巷37號,0,0
寺廟,顯靈宮,屏東縣,屏東縣屏東市湖南里歸禮巷36-1號,0,0
寺廟,聖玄宮,南投縣,南投縣草屯鎮新豐里5鄰稻香路40之10號,0,0
寺廟,三官宮啟惠修原堂,新北市,新北市新店區長峰路65號,0,0
寺廟,南正宮,彰化縣,彰化縣彰化市三村里三村路852巷31號,0,0
寺廟,鳳良宮,南投縣,南投縣水里鄉民和村1鄰光明路12巷6號,0,0
寺廟,觀音亭佛堂,高雄市,高雄市內門區大坑內南里3-5號,0,0
寺廟,聖侯廟,金門縣,金門縣金寧鄉上后垵榜林村16號,118.318824768066,24.4740562438965
寺廟,廣濟廟,金門縣,金門縣金寧鄉頂堡盤山村128-6號,0,0
寺廟,聖興宮,臺南市,臺南市善化區東勢寮東隆里9鄰215-2號,0,0
寺廟,代天宮,臺南市,臺南市善化區什乃什乃里9鄰81號,0,0
寺廟,鎮安宮,嘉義市,嘉義市西區頂埤57號,0,0
寺廟,聖天宮,苗栗縣,苗栗縣竹南鎮竹南照南里4鄰9號,0,0
寺廟,長安寺,南投縣,南投縣集集鎮玉映里佛廟巷6號,0,0
寺廟,新竹縣湖口鄉波羅汶三元宮,新竹縣,新竹縣湖口鄉波羅村3鄰三元路2段82號,0,0
寺廟,大眾爺廟,宜蘭縣,宜蘭縣蘇澳鎮港邊里濱海公路旁,0,0
寺廟,開帝殿開興堂,臺南市,臺南市東區崇德7街8巷50號,0,0
寺廟,南寧宮,屏東縣,屏東縣恆春鎮山海里13鄰紅紫路,0,0
寺廟,福安宮,嘉義縣,嘉義縣番路鄉竹山內甕12鄰(內甕段634之12地號),0,0
寺廟,善德宮,南投縣,南投縣魚池鄉共和村7鄰五馬巷60-3號,0,0
寺廟,鎮西宮,金門縣,金門縣金寧鄉北山古寧村172-1號,0,0
寺廟,般若妙園,桃園市,桃園市龍潭區九龍村7鄰九座寮6之1號,0,0
寺廟,聖母宮,雲林縣,雲林縣東勢鄉媽埔月眉村19鄰20號,0,0
寺廟,竹北市豆子埔惟馨宮,新竹縣,新竹縣竹北市竹北里11鄰中山路190之3號,0,0
寺廟,財團法人桃園市平鎮區東勢建安宮,桃園市,桃園市平鎮區建安里17鄰平東路1段98之1號,0,0
寺廟,福德宮,屏東縣,屏東縣林邊鄉田厝段290-3號,0,0
寺廟,宏德宮,金門縣,金門縣金城鎮珠浦西路79-1號,118.313842773438,24.4378490447998
寺廟,五顯廟,金門縣,金門縣金城鎮歐厝珠沙里2-4號,0,0
寺廟,朝元禪寺,屏東縣,屏東縣內埔鄉中林村9鄰聯通街600號,0,0
寺廟,大眾廟,桃園市,桃園市蘆竹區福祿里1鄰五福一路95巷13號,0,0
寺廟,翕玉佛軒,桃園市,桃園市蘆竹區福興中福村17鄰31-14號,0,0
寺廟,元天宮,雲林縣,雲林縣水林鄉頂尖山3鄰30號,0,0
寺廟,龍泉宮,南投縣,南投縣集集鎮集集里初中街57,0,0
寺廟,福興宮,雲林縣,雲林縣水林鄉春埔1鄰62號,0,0
寺廟,南清宮,雲林縣,雲林縣臺西鄉溝南永豐村2號,0,0
寺廟,聖汝宮,臺南市,臺南市東區裕和5街211號,0,0
寺廟,鎮安府,雲林縣,雲林縣臺西鄉海口村12鄰中山路299巷65號,0,0
寺廟,三清寶德宮,屏東縣,屏東縣林邊鄉官埔竹林村路11號,0,0
寺廟,三寶山靈嚴講堂,臺南市,臺南市東區裕農1街153號,0,0
寺廟,長天宮,嘉義縣,嘉義縣新港鄉板頭厝板頭村4鄰9號,0,0
寺廟,福德祠,苗栗縣,苗栗縣頭份市頭份一小段327地號(聯絡處：裕賢宮：土牛里6鄰66號),0,0
寺廟,淨悟堂,屏東縣,屏東縣枋山鄉光復善餘村83之1號,0,0
寺廟,三武宮,新竹縣,新竹縣北埔鄉小南坑南坑村3鄰1之3號,0,0
寺廟,福德宮,雲林縣,雲林縣斗南鎮文安新光里段974地號,0,0
寺廟,鎮湖府,雲林縣,雲林縣土庫鎮綺湖奮起里96號,0,0
寺廟,義雲宮,雲林縣,雲林縣土庫鎮新興興新里40號,0,0
寺廟,法化寺,桃園市,桃園市大園區後館圳頭村2鄰25號,0,0
寺廟,福興堂,雲林縣,雲林縣四湖鄉四湖村5鄰中山東路21之23號,0,0
寺廟,觀音亭,澎湖縣,澎湖縣馬公市中興里14鄰介壽路7號,0,0
寺廟,振興宮,雲林縣,雲林縣西螺鎮廣興里8鄰70號,0,0
寺廟,無極聖皇宮,苗栗縣,苗栗縣造橋鄉山仔頂龍昇村12鄰21號,0,0
寺廟,舊桃園媽祖堂,桃園市,桃園市桃園區大林里13鄰桃鶯路338巷37號,0,0
寺廟,玉皇宮,臺南市,臺南市學甲區一秀里16-12號,0,0
寺廟,回龍殿,金門縣,金門縣金城鎮賢庵里官路邊,0,0
寺廟,悟修堂,彰化縣,彰化縣田中鎮東源里山腳路三段259巷122號,0.000107288411527406,3.21865227306262E-05
寺廟,財團法人南方寶生佛剎,新北市,新北市新店區五峰路61巷39號,0,0
寺廟,財團法人台北市臨濟護國禪寺,臺北市,臺北市中山區圓山里酒泉街5巷27號,0,0
寺廟,財團法人中壢三教紫雲宮,桃園市,桃園市中壢區新興里7鄰自忠2街126號,0,0
寺廟,麟護宮,金門縣,金門縣烈嶼鄉后頭黃埔村11號,0,0
寺廟,真武廟,金門縣,金門縣烈嶼鄉上林村中墩5號,118.232139587402,24.4336338043213
寺廟,天臺聖宮耀德佛堂,金門縣,金門縣烈嶼鄉東林林湖村1號,0,0
寺廟,豐里土地公廟,臺東縣,臺東縣臺東市豐里里中華路四段131巷尾,0,0
寺廟,郭府宮殿,臺南市,臺南市東區崇明11街52巷11號,0,0
寺廟,慈願寺,苗栗縣,苗栗縣頭屋鄉頭屋村17鄰雙龍街18號,0,0
寺廟,東興宮,高雄市,高雄市林園區溪洲里溪洲一路56巷3號,0,0
寺廟,德和堂,嘉義縣,嘉義縣溪口鄉本廳本厝村5鄰22號,0,0
寺廟,福德祠,苗栗縣,苗栗縣通霄鎮通東里14鄰福德路11巷19-1號,0,0
寺廟,奉天宮,雲林縣,雲林縣林內鄉林南村建國巷23號,0,0
寺廟,睢陽府廟,金門縣,金門縣金城鎮金門城古城里68-1號,118.299667358398,24.4079513549805
寺廟,台北五賢宮,桃園市,桃園市龜山區關公嶺龍壽村28鄰7號,0,0
寺廟,善福堂,苗栗縣,苗栗縣竹南鎮中華里5鄰民生路104號,0,0
寺廟,雞林仁愛福德宮,新竹縣,新竹縣竹東鎮大同路167巷9號,0,0
寺廟,同淨蘭若,新北市,新北市新店區五峰路61巷11號,0,0
寺廟,萬丹宮,南投縣,南投縣名間鄉萬丹村新丹巷13號,0,0
寺廟,明福宮,雲林縣,雲林縣臺西鄉復興和豐村路108號,0,0
寺廟,靈聖宮,臺中市,臺中市霧峰區吉峰里錦州路459巷3號,0,0
寺廟,塩埕北極殿,臺南市,臺南市南區白雪里塩埕路159巷1號,0,0
寺廟,白鶴寺2,高雄市,高雄市旗山區義德14巷51號,0,0
寺廟,天朝后宮,高雄市,高雄市阿蓮區中正16巷14號,0,0
寺廟,代天宮,南投縣,南投縣名間鄉外埔巷2-1號,0,0
寺廟,財團法人新北市寶山關帝廟,新北市,新北市汐止區里瑞松街204巷23號,0,0
寺廟,財團法人道教玄德殿基金會,高雄市,高雄市前鎮區班超路92-2號,0,0
寺廟,財團法人天金堂,高雄市,高雄市大寮區拷潭路3之20號,0,0
寺廟,財團法人台灣省高雄市高崇山福亨寺佈教資團,高雄市,高雄市鼓山區裕興路11號,0,0
寺廟,財團法人金城鎮東門里代天府,金門縣,金門縣金城鎮珠浦東路12-1號,118.319580078125,24.4309043884277
寺廟,金門沙美內閣三忠廟,金門縣,金門縣金沙鎮汶沙里沙美27號,118.413551330566,24.4917316436768
寺廟,財團法人佛教大華嚴寺,南投縣,南投縣鹿谷鄉和雅村愛鄉路34-1號,0,0
寺廟,金寧鄉安岐將軍廟,金門縣,金門縣金寧鄉安岐201-2號,118.325004577637,24.462646484375
寺廟,財團法人和美天佑宮,彰化縣,彰化縣和美鎮鹿和路6段375號,0,0
寺廟,財團法人道教北極真武基金會,臺中市,臺中市太平區長龍路3段23巷11號,0,0
寺廟,財團法人天主教奧斯會,高雄市,高雄市大寮區中興里中正路4號,0,0
寺廟,西湖宮,高雄市,高雄市田寮區三和里茄苳湖18號,0.0010514265159145,0.00013947494153399
寺廟,新福宮,宜蘭縣,宜蘭縣宜蘭市縣政2街107號,0,0
寺廟,大灣玉虛寺,臺南市,臺南市永康區大灣里中灣1街16號,8.58307321323082E-05,4.29153697041329E-05
寺廟,龍華柬化堂,屏東縣,屏東縣枋寮鄉枋寮鄉中寮村保生路6-1號,1.7166212273878E-05,0.000171661304193549
教會,財團法人台灣基督長老教會屏東中會,屏東縣,屏東縣屏東市香揚巷1-6號,0,0
教會,財團法人基督教花蓮錫安堂,花蓮縣,花蓮縣花蓮市中美9街117巷1弄10之1號,0,0
教會,財團法人金門基督教會,金門縣,金門縣金城鎮珠浦北路30號,118.317558288574,24.4337959289551
教會,財團法人天主教會高雄教區山地教會牡丹天主堂,屏東縣,屏東縣牡丹鄉石門村石門路1-5號,0,0
教會,財團法人新北市樹林中華基督教國語禮拜堂,新北市,新北市樹林區啟智街78號,0,0
教會,財團法人基督教全備福音中部教會,臺中市,臺中市南屯區春社東巷2弄3號,0,0
教會,財團法人新約教會花蓮教會,花蓮縣,花蓮縣花蓮市國富12街17號,0,0
教會,財團法人新約教會屏東教會,屏東縣,屏東縣屏東市林內巷45號,0,0
教會,財團法人台灣北區守望台聖經書社,臺北市,臺北市中山區農安街210號6樓之2,0,0
教會,財團法人金湖鎮召會,金門縣,金門縣金湖鎮林森路13號,118.416839599609,24.4412899017334
教會,財團法人基督教台灣聖光教會,臺中市,臺中市潭子區勝利13街35號,0,0
教會,財團法人台灣省花蓮縣中華基督長老會山宣總會,花蓮縣,花蓮縣秀林鄉秀林村路10之1號,0,0
教會,臺灣基督長老教會蓬萊基督長老教會,苗栗縣,苗栗縣南庄鄉大湳蓮萊村14鄰20號,0,0
教會,財團法人天主教聖衣會,新竹縣,新竹縣芎林鄉新鳳村五股林5鄰19號,0,0
教會,財團法人台北市中正基督長老教會,臺北市,臺北市中山區江山里龍江路281巷11號,0,0
教會,財團法人花蓮縣台灣基督長老教會美港教會,花蓮縣,花蓮縣花蓮市中美2街61號,0,0
教會,財團法人水里教會聚會所,南投縣,南投縣水里鄉北埔村民族街3巷68號,0,0
教會,財團法人福建省金門縣沙美基督長老教會,金門縣,金門縣金沙鎮沙美122號,118.411743164063,24.4915542602539
教會,財團法人基督教家庭教會,苗栗縣,苗栗縣頭份市郵政信箱40號,0,0
教會,財團法人中華基督教民生浸信會,嘉義縣,嘉義縣水上鄉民生村13鄰成功街7巷22號,0,0
教會,財團法人高雄市中華基督教和平浸信會,高雄市,高雄市苓雅區四維二路101號,0,0
教會,財團法人台灣省桃園縣基督教中宣拓荒宣教聯會,桃園市,"桃園市中壢區內厝子內厝里2鄰17之6 號",0,0
教會,汶水基督長老教會,苗栗縣,苗栗縣泰安鄉圓墩錦水村4鄰2-1號,0,0
教會,中興曠野教會,苗栗縣,苗栗縣泰安鄉司馬限中興村4鄰4號,0,0
教會,財團法人台灣省桃園縣中華基督教埔心浸信會,桃園市,桃園市楊梅區埔心里漢昌街15號,0,0
教會,財團法人台灣省桃園縣基督教神召會山地區議會,桃園市,桃園市大溪區廟前仁愛里1至31號,0,0
教會,財團法人新北市基督教會福音堂,新北市,新北市五股區德音里登林路64之3號,0,0
教會,財團法人新北市花園新城教會,新北市,新北市新店區花園新城橘園一路7號,0,0
教會,財團法人基督教更生團契,臺北市,臺北市中山區中吉里松江路132巷3號4樓,0,0
教會,中華信義會遵道堂,苗栗縣,苗栗縣通霄鎮南和平元里路1段102號,0,0
教會,財團法人桃園縣大園鄉召會聚會所,桃園市,桃園市大園區大牛稠大海村8鄰3之17號,0,0
教會,財團法人台灣省屏東縣高樹鄉基督教會,屏東縣,屏東縣高樹鄉自強鹽樹村路88-1號,0,0
教會,後龍長老教會,苗栗縣,苗栗縣後龍鎮城外南龍里98-1號,0,0
教會,大安天主堂,苗栗縣,苗栗縣泰安鄉大安象鼻村6鄰23號,0,0
教會,大安真耶蘇教會,苗栗縣,苗栗縣泰安鄉大安象鼻村5鄰4號,0,0
教會,財團法人中華基督教正義浸信會,臺北市,臺北市大安區義村里仁愛路3段123巷13弄1-5號,0,0
教會,財團法人中華基督教行道會西湖平安堂,苗栗縣,苗栗縣西湖鄉埔頂東村7-35號,0,0
教會,財團法人臺灣中國基督教信義會,臺北市,臺北市大安區和平東路二段277號3樓,0,0
教會,財團法人台灣省台南市天主教鮑思高慈幼會,臺南市,臺南市東區裕農3街1號,0,0
教會,財團法人中華基督教廈門街浸信會,臺北市,臺北市中正區網溪里廈門街81巷20號,0,0
教會,中興天主堂,苗栗縣,苗栗縣泰安鄉長橋中興村3鄰36-1號,0,0
教會,財團法人台灣基督宣道團,宜蘭縣,宜蘭縣冬山鄉大埤二189巷36號,0,0
教會,財團法人台中基督的教會,臺中市,臺中市北區陜西東3街41號,0,0
教會,財團法人中華基督教台中建德浸信會,臺中市,臺中市東區東橋里進德街200號,0,0
教會,財團法人下營鄉教會聚會所,臺南市,臺南市下營區新興里17鄰中華街206巷2號,0,0
教會,士林真耶蘇教會,苗栗縣,苗栗縣泰安鄉馬那邦士林村4鄰13-2號,0,0
教會,基督教大興新使徒教會,苗栗縣,苗栗縣泰安鄉高熊卡大興村2鄰12號,0,0
教會,財團法人山外基督教會,金門縣,金門縣金湖鎮林森路新市37號,118.415649414063,24.4420738220215
教會,臺灣基督長老教會客家宣教宗會南庄教會,苗栗縣,苗栗縣南庄鄉南庄東村2號,0,0
教會,永安真耶蘇教會,苗栗縣,苗栗縣泰安鄉大安象鼻村3鄰41號,0,0
教會,司馬限基督長老教會,苗栗縣,苗栗縣泰安鄉司馬限中興村5鄰16-2號,0,0
教會,大興神召會,苗栗縣,苗栗縣泰安鄉南灣大興村7鄰11號,0,0
教會,努呼路瑪基督長老教會,苗栗縣,苗栗縣泰安鄉大安象鼻村5鄰29-1號,0,0
教會,大安神召會,苗栗縣,苗栗縣泰安鄉大安象鼻村6鄰16號,0,0
教會,斯瓦細格基督長老教會,苗栗縣,苗栗縣泰安鄉橫龍山錦水村9鄰43號,0,0
教會,財團法人台灣省花蓮縣基督教宣教士差會,花蓮縣,花蓮縣花蓮市民權8街1號(轉34戴小姐),0,0
教會,財團法人新北市基督教主愛教會,新北市,新北市三芝區中興街2段105巷2號5樓,0,0
教會,錦水天主堂,苗栗縣,苗栗縣泰安鄉圓墩錦水村6鄰43號,0,0
教會,細道邦基督長老教會,苗栗縣,苗栗縣泰安鄉長橋中興村1鄰13號,0,0
教會,財團法人台灣省台南市基督教活水基督教會,臺南市,臺南市東區崇明4街50號6樓之1,0,0
教會,財團法人基督教鄉村福音佈道團,臺南市,臺南市東區財團法人基督教鄉村福音佈道團,0,0
教會,臺灣基層福音差傳會頭屋教會,苗栗縣,苗栗縣頭屋鄉頭屋村5鄰中山街33號,0,0
教會,財團法人竹山鎮教會聚會所,南投縣,南投縣竹山鎮桂林里加正巷17號,0,0
教會,財團法人台北市基督教會興雅三一堂,臺北市,臺北市信義區西村里永吉路30巷83弄13號,0,0
教會,財團法人中華基督教浸信會得恩堂,臺中市,臺中市潭子區大德南路16號,0,0
教會,財團法人台灣基督長老教會台南大光教會,臺南市,臺南市北區長榮五段378巷25號,0,0
教會,財團法人台灣基督長老教會阿美中會,花蓮縣,花蓮縣花蓮市明智128號,0,0
教會,財團法人耶穌基督恩典教會,花蓮縣,花蓮縣新城鄉嘉里三120巷8之1號,0,0
教會,財團法人花蓮縣守望台聖經書社,花蓮縣,花蓮縣光復鄉中正一段295巷1號,0,0
教會,財團法人基督教世界歸主教會,桃園市,桃園市大園區大仁46號3樓,0,0
教會,財團法人基督教自由浸禮會,高雄市,高雄市鳳山區中和街208巷1號,0,0
教會,財團法人基督教會宜蘭靈糧堂,宜蘭縣,宜蘭縣宜蘭市女中路2段469號3F,0,0
教會,財團法人高雄基督教真愛教會,高雄市,高雄市苓雅區林富里青年一路31號3樓,0,0
教會,財團法人中華基督教宜蘭浸信會,宜蘭縣,宜蘭縣宜蘭市軍民路5巷66號,0,0
教會,財團法人基督教大寮活泉靈糧堂,高雄市,高雄市大寮區內厝路122號,0,0
教會,財團法人高雄市中華基督教浸信會文化堂,高雄市,高雄市新興區文橫二路146號,0,0
教會,財團法人基督教高雄愛加倍福音教會,高雄市,高雄市三民區信國路4號地下層,0,0
教會,財團法人基督教瑞豐教會,高雄市,高雄市鼓山區高雄市鼓山區裕豐街90號,0,0
教會,財團法人台東縣守望台聖經書社,臺東縣,臺東縣池上鄉大埔路24號,0,0
教會,財團法人中華基督教城市生命泉教會,臺東縣,臺東縣臺東市南島大道631號,0,0
教會,財團法人新約教會台東教會,臺東縣,臺東縣臺東市鄭州街109號,0,0
教會,財團法人基督教基督豐收教會,高雄市,高雄市左營區民族一路1009號地下1樓,0,0
教會,財團法人台東教會聚會所,臺東縣,臺東縣臺東市長安街222號,0,0
教會,財團法人基督教台東博愛浸信會,臺東縣,臺東縣臺東市仁五街47號4樓,0,0
教會,財團法人中華基督教浸信宣道會台東黎明教會,臺東縣,臺東縣臺東市志航路一段9號,0,0
教會,財團法人台灣基督長老教會鹽埕教會,高雄市,高雄市鹽埕區港都里18鄰瀨南街53號,0,0
教會,財團法人台中市基督教毘努伊勒會,臺中市,臺中市南屯區南屯路二段290號B1,9.53792332438752E-05,0.000190758786629885
教會,財團法人台灣基督長老教會南崁大安教會,桃園市,桃園市蘆竹區五福一路1之3號,0,0
教會,財團法人基督教會台南錫安堂,臺南市,臺南市永康區小東路689號地下1樓,0,0
教會,財團法人中華基督教浸信會台南市恩慈堂教會,臺南市,臺南市東區大學路14號,0,0
教會,財團法人基督教磐石基督教會,臺南市,臺南市玉井區三和里66之21號,0,0
教會,財團法人台灣基督長老教會加利利宣教中心,臺南市,臺南市玉井區三埔里83-1號,0,0
教會,財團法人天理教台東縣傳道所,臺東縣,臺東縣臺東市信義路255巷7弄1號,0,0
教會,財團法人台灣基督長老教會中布中會,南投縣,南投縣埔里鎮西安路一段497巷11號,0,0
教會,財團法人台灣基督長老教會泰雅爾中會,苗栗縣,苗栗縣大湖鄉大寮村5鄰竹高屋47-1號,0,0
教會,財團法人屏東基督教日光園,屏東縣,屏東縣屏東市瑞光里香揚巷1-6號,0,0
教會,財團法人高雄市天主教聖方濟醫務修女會,高雄市,高雄市旗津區廟前路103巷39號,0,0
教會,財團法人高雄市基督教高榮教會,高雄市,高雄市左營區榮總路203巷12號,0,0
教會,財團法人基督教火車頭教會,高雄市,高雄市三民區河北二路50之1號,0,0
教會,財團法人高雄市基督徒之家,高雄市,高雄市前金區市中一路227巷33號,0,0
教會,財團法人中國回教協會高雄清真寺,高雄市,高雄市苓雅區建軍路11號,0,0
教會,財團法人高雄市中國基督教長老會青島村教會,高雄市,高雄市小港區飛機路352號,0,0
教會,財團法人台灣省高雄縣岡山教會聚會所,高雄市,高雄市岡山區柳橋西路38巷1弄5號,0,0
教會,財團法人大寮教會聚會所,高雄市,高雄市大寮區內厝路45號3樓之1,0,0
教會,財團法人臺灣省臺南市天主教仁愛修女會,臺南市,臺南市南區金華路一段530巷19號,0,0
教會,財團法人基督教中央教會總部,屏東縣,屏東縣來義鄉文樂村新樂16之3號,0,0
教會,財團法人台灣基督長老教會屏東春日教會,屏東縣,屏東縣春日鄉春日村98號,0,0
教會,財團法人屏東縣中華基督教安提阿中央教會總部,屏東縣,屏東縣來義鄉文樂村新樂16-3號,0,0
教會,財團法人中華基督教教潮州浸信會,屏東縣,屏東縣潮州鎮扶輪路44號,0,0
教會,財團法人台南福音基督教會,臺南市,臺南市東區台南市東區衛國路19號,0,0
教會,財團法人基督教良友會,臺南市,臺南市中西區西華南街62、66號,0,0
教會,財團法人基督教希望之光會,臺南市,臺南市中西區忠義路二段159號,0,0
教會,財團法人台灣基督長老教會台南佳里教會,臺南市,臺南市佳里區佳里區中山路158號,0,0
教會,財團法人中國基督教靈糧世界佈道會安平靈糧堂,臺南市,臺南市東區東興路31巷10之3號,0,0
教會,財團法人台北市中華基督教長老會台北信友堂,臺北市,臺北市大安區羅斯福路3段269巷5號,0,0
教會,財團法人基督教大寮山頂浸禮會,高雄市,高雄市大寮區中興里中正路2之2巷23號,0,0
教會,財團法人基督教福德浸信會,高雄市,高雄市前鎮區瑞信街25號,0,0
教會,財團法人基督教北高雄聖經聖潔會,高雄市,高雄市鼓山區明誠三路683號6樓,0,0
教會,財團法人中國回教協會,臺北市,臺北市大安區新生南路2段62號,0,0
教會,財團法人草屯鎮教會聚會所,南投縣,南投縣草屯鎮新厝里20鄰687號,0,0
教會,財團法人中華基督復興會總會,臺南市,臺南市永康區中華一路181巷20號,0,0
教會,財團法人基督教浸信會,雲林縣,雲林縣斗六市榮譽路205號,0,0
教會,財團法人一粒麥福音宣教會,彰化縣,彰化縣彰化市成功路25號,0,0
教會,財團法人中華基督教六龜浸信會,高雄市,高雄市六龜區東溪山莊1號,0,0
教會,財團法人高雄市真道神學院,高雄市,高雄市三民區民族一路806號4樓,0,0
教會,財團法人新北市召會永和會所,新北市,新北市永和區自強街32巷9號,0,0
教會,財團法人新北市中國基督教靈糧世界佈道會蘆洲靈糧堂,新北市,新北市蘆洲區三民路249號3樓之2,0,0
教會,財團法人新北市基督徒蘆洲禮拜堂,新北市,新北市蘆洲區民族路248號2樓,0,0
教會,財團法人台灣省台北縣基督教汐止讚美浸信會,新北市,新北市汐止區伯爵街2巷1號,0,0
教會,財團法人新北市基督教新希望教會,新北市,新北市淡水區北新路169巷46號8樓,0,0
教會,財團法人新北市召會淡水會所,新北市,新北市淡水區中正東路1段3巷21號7樓,0,0
教會,財團法人新北市中華基督教新樹浸信會,新北市,新北市新莊區新樹路295之3號,0,0
教會,財團法人基督教正道福音神學中心,新北市,新北市新莊區中正路649之1號十樓,0,0
教會,財團法人新北市基督教喜樂城靈糧堂,新北市,新北市中和區中正路911號3樓之1,0,0
宗祠基金會,財團法人金門縣一貫道崇德贊化基金會,金門縣,金門縣金湖鎮料羅里新塘27號,0,0
宗祠,財團法人王氏太原堂,臺北市,臺北市大同區迪化街２段鄰江里243巷2號,0,0
宗祠,財團法人葉春日公祖祠,桃園市,桃園市新屋區永興里3鄰大牛欄100號,0,0
宗祠,財團法人呂孔賜番謀宗祠,桃園市,桃園市蘆竹區南崁路265號7樓之3,0,0
宗祠,財團法人臺灣省桃園縣徐麟書公,桃園市,桃園市新屋區三民路一段393號,0,0
宗祠,財團法人高雄市吳氏宗祠,高雄市,高雄市苓雅區福德一路73號4樓,0,0
宗祠,財團法人台南市顏公輪宗祠,臺南市,臺南市六甲區台南市六甲區甲南里復興街１１號,0,0
宗祠,財團法人高雄市六桂堂宗祠,高雄市,高雄市新興區中正三路115號,0,0
宗祠,財團法人高雄市朱氏宗祠,高雄市,高雄市前鎮區前鎮街56號,0,0
宗祠,財團法人仕隆許長記祭祀公業,高雄市,高雄市橋頭區仕隆路59號1樓,0,0
宗祠,財團法人陳府祖師公祠祭祀公業,高雄市,高雄市仁武區中正路287號,0,0
宗祠,財團法人李氏宗祠祭祀公業,高雄市,高雄市鳥松區大竹里長春路22號,0,0
基金會,財團法人金門杰思弘道基金會,金門縣,金門縣金湖鎮后園68號,118.405120849609,24.4386444091797
基金會,財團法人佛光普照基金會,臺北市,臺北市北投區致遠2路95巷4號3樓,0,0
基金會,財團法人宜蘭縣林永記公廳基金會,宜蘭縣,宜蘭縣羅東鎮新群里月眉街630號,0,0
基金會,財團法人金門大佛開發基金會,金門縣,金門縣金城鎮中興路205巷5號,118.320137023926,24.434814453125
基金會,財團法人台北清真寺基金會,臺北市,臺北市大安區龍安里新生南路2段62號,0,0
基金會,天皇宮,臺中市,臺中市石岡區九房村建德街8號,0,0
基金會,財團法人高雄市一貫道天一基金會,高雄市,高雄市岡山區中山北路138號15樓之4,0,0
基金會,財團法人宇宙彌勒皇教基金會,臺北市,臺北市大安區基隆路2段112號8樓,0,0
基金會,財團法人基督教泉恩基金會,臺北市,臺北市中山區錦州街284號1樓,0,0
基金會,財團法人佛教功德山基金會,桃園市,桃園市龜山區萬壽路2段339號8樓,0,0
基金會,財團法人台灣省嘉義縣道教未天祖基金會,嘉義縣,嘉義縣新港鄉溪北村溪北36-5號,0,0
基金會,財團法人臺北市大乘基金會,臺北市,臺北市中正區光復里漢口街1段132號6樓,0,0
基金會,財團法人高雄市張枝茂佛教基金會,高雄市,高雄市仁武區仁武里仁信巷17之1號1樓,0,0
基金會,財團法人高雄市彩虹山宗教基金會,高雄市,高雄市六龜區新發村新開27之1號,0,0
基金會,財團法人臺中市正坤基金會,臺中市,臺中市大里區瑞城1街125巷13號,0,0
基金會,財團法人真如苑佛教基金會,臺北市,臺北市中山區樂群三路310號,0,0
基金會,財團法人中國社會行為研究社中華崑崙道苑基金會,臺北市,臺北市士林區承德路4段10巷36號,0,0
基金會,財團法人龍華聖教基金會,臺北市,臺北市大同區長安西路88號8樓,0,0
基金會,財團法人佛教慈悲志業基金會,宜蘭縣,宜蘭縣羅東鎮中華路242號1樓,0,0
基金會,財團法人佛教台灣大慈恩譯經基金會,雲林縣,雲林縣虎尾鎮民族路8號2樓,0,0
基金會,財團法人國際佛教法林基金會,臺南市,臺南市新化區𦰡拔里𦰡拔林31-5號,0,0
基金會,財團法人佛光山人間佛教發展基金會,高雄市,高雄市大樹區興田路153號雲來集1樓,0,0
基金會,財團法人佛教華嚴光明基金會,高雄市,高雄市前鎮區嘉陵街2號9樓,0,0
基金會,財團法人新北市一貫道天華基金會,新北市,新北市汐止區湖光里明峰街26號2樓,0,0
基金會,財團法人新北市紫陽宗教基金會,新北市,新北市石門區中央路37-2號,0,0
基金會,財團法人新北市南屏基金會,新北市,新北市淡水區八勢路1段120號,0,0
基金會,財團法人臺中市弘明佛教基金會,臺中市,臺中市大里區永大街201巷18號,0,0
